"","name","type","lon","lat","address","zip"
"1","Aachtal","m",9.2732473,47.5482982,"Schrofenstrasse 19","8580"
"2","Aadorf","m",8.8994059,47.4900907,"Bahnhofstrasse 2","8355"
"3","Aarau","mig",8.0515956,47.3919981,"Bahnhofplatz 4","5000"
"4","Aarau - Igelweid","mm",8.0461249,47.3917137,"Igelweid 18","5000"
"5","Aarau Bahnhof","m",8.0521391,47.3916721,"Bahnhofplatz 3h","5000"
"6","Abtwil - Säntispark","mm",9.316473,47.4174113,"Wiesenbachstrasse 7","9030"
"7","Adligenswil","dmp",8.3619211,47.0715393,"Obgardirain 1","6043"
"8","Adliswil","mm",8.5252672,47.3112824,"Albisstrasse 10","8134"
"9","Aesch","mm",7.5960676,47.4694175,"Hauptstrasse 95","4147"
"10","Affoltern a. A.","mm",8.453809,47.2780275,"Oberdorfstrasse 4","8910"
"11","Affoltern am Albis","soca",8.4457167,47.2750156,"Obfelderstrasse 1","8910"
"12","Agno","mgls",8.9056394,45.9983117,"Via Lugano 21","6982"
"13","Aigle - Chablais Centre","mmm",6.9364455,46.3167026,"Ch. Sous-le-Grand Pré 4","1860"
"14","Allschwil - Binningerstr.","mgls",7.5463149,47.5485219,"Binningerstrasse 91","4123"
"15","Allschwil - Paradies","mmm",7.5535788,47.5474626,"Spitzwaldstrasse 215","4123"
"16","Allschwil - Paradies Pop-Up Store","fm",7.5534429,47.5473935,"Spitzwaldstrasse 215","4123"
"17","Allschwil - Stockbrunnenrain","shell",7.5536691,47.5462124,"Stockbrunnenrain 2","4123"
"18","Allschwil - Ziegelei","m",7.5499775,47.5530962,"Baslerstrasse 191","4123"
"19","Allschwil-Lindenplatz","dmp",7.5603772,47.5578704,"Lindenplatz 1","4123"
"20","Alnatura Bio Super Markt - Glattzentrum","alna",8.5952402,47.4082791,"Neue Winterthurerstrasse 99","8304"
"21","Alnatura Bio Super Markt Bern","alna",7.443384,46.9475701,"Bärenplatz 8","3011"
"22","Alnatura Bio Super Markt Bülach","alna",8.5399111,47.5209742,"Bahnhofstrasse 28","8180"
"23","Alnatura Bio Super Markt Luzern","alna",8.3083917,47.0544369,"Hertensteinstrasse 40","6004"
"24","Alnatura Bio Super Markt Metalli Zug","alna",8.517689,47.1725892,"Baarerstrasse 22","6300"
"25","Alnatura Bio Super Markt Oerlikon","alna",8.543878,47.4087478,"Baumackerstrasse 35","8050"
"26","Alnatura Bio Super Markt Uster","alna",8.7155557,47.3498692,"Zürichstrasse 20","8610"
"27","Alnatura Bio Super Markt Winterthur-Grüze","alna",8.7533556,47.4967661,"Industriestrasse 11","8400"
"28","Alnatura Bio Super Markt Winterthur-Neuwiesen","alna",8.7209179,47.4992804,"Strickerstrasse 3","8400"
"29","Alnatura Bio Super Markt Zürich HB - Sihlquai","alna",8.535889,47.3786818,"Sihlquai","8001"
"30","Alnatura Bio Super Markt Zürich-City","alna",8.5361463,47.3752669,"Löwenstrasse 31","8001"
"31","Alnatura Bio Super Markt Zürich-Höngg","alna",8.4982339,47.4032754,"Kappenbühlweg 5","8049"
"32","Alpnach Outlet","spez",8.2762082,46.9341853,"Untere Gründlistrasse 21","6055"
"33","Altdorf","m",8.6416105,46.8796664,"Gitschenstrasse 14","6460"
"34","Altdorf","mgls",8.626639,46.8962178,"Flüelerstrasse 154","6460"
"35","Alterswil","dmp",7.2597819,46.7948011,"Dorfzentrum Alpenrose","1715"
"36","Altstätten","mig",9.5564789,47.3743935,"Bahnhofstrasse 71","9450"
"37","Altstätten SG","mm",9.5377008,47.3771836,"Stossstrasse 2","9450"
"38","Amriswil","mm",9.2979866,47.5466866,"Rütistrasse 10a","8580"
"39","Amriswil","mgls",9.2727591,47.5448552,"Weinfelderstrasse 130","8580"
"40","Amriswil - Amriville","fm",9.2975535,47.5476347,"Kirchstrasse 11","8580"
"41","Andelfingen","m",8.6887258,47.601998,"Weinlandstrasse 4","8451"
"42","Appenzell","mm",9.4071483,47.3348204,"Unteres Ziel","9050"
"43","Arbedo Castione","m",9.0440908,46.2250903,"Via Corogna","6532"
"44","Arbon","mm",9.432242,47.5119795,"St. Gallerstrasse 6","9320"
"45","Arlesheim","mm",7.6185546,47.494261,"Postplatz 7","4144"
"46","Ascona","m",8.773702,46.1540856,"Via Muraccio 2","6612"
"47","Ascona","pica",8.7718592,46.1550202,"Via Circonvallazione 3","6612"
"48","Au SG","m",9.6377624,47.431293,"Nollenhornstrasse 9","9434"
"49","Augst","shell",7.7114805,47.5347061,"Rheinstrasse 29","4133"
"50","Avenches","m",7.0451655,46.8854592,"Route de Pré-Vert 5","1580"
"51","Avry Centre","mmm",7.0781119,46.7876479,"Route de Matran 9","1754"
"52","Avry-devant-Pont","shell",7.0853634,46.681995,"Restoroute de la Gruyère","1644"
"53","Baar","m",8.5251587,47.1954848,"Bahnhofstrasse 5","6340"
"54","Bad Ragaz","dmp",9.5014435,47.0035166,"Bahnhofstrasse 2","7310"
"55","Bad Zurzach","mm",8.2959683,47.5857967,"Promenadenstrasse 10","5330"
"56","Baden","shell",8.278909,47.4825931,"Bruggerstrasse 194","5400"
"57","Baden - Bhf. Take Away","mr",8.3078837,47.4767306,"Metro Shop, Bahnhof SBB","5400"
"58","Baden - City","mm",8.3086945,47.4768235,"Bahnhofstrasse 40/42","5400"
"59","Baden-Dättwil","shell",8.2830446,47.4564069,"Zelgweg 17","5405"
"60","Baden-Dättwil","soca",8.2908713,47.4499939,"Mellingerstrasse 216","5405"
"61","Balerna-Bisio 1","pica",9.0159183,45.8411348,"Via S. Gottardo 13","6828"
"62","Balerna-Bisio 2","pica",9.0159686,45.8415389,"Via S. Gottardo 32","6828"
"63","Balerna-Roncaglia","pica",9.0116168,45.8361298,"Via Passeggiata 24","6828"
"64","Balsthal","m",7.6955408,47.3168586,"Goldgasse 13","4710"
"65","Basel - Allschwiler","m",7.5734192,47.5559314,"Allschwilerstrasse 31","4055"
"66","Basel - Bahnhof Provisorium","m",7.5880692,47.5480506,"Centralbahnstrasse 10","4051"
"67","Basel - Birsigstrasse","dmp",7.5783333,47.5501347,"Birsigstrasse 105","4054"
"68","Basel - Burgfelder","mm",7.5724253,47.5622371,"Burgfelderstrasse 11","4055"
"69","Basel - Claramarkt","mmm",7.5920619,47.5615832,"Ochsengasse 2","4058"
"70","Basel - Drachen-Center","mm",7.5928077,47.5528056,"Aeschenvorstadt 24","4051"
"71","Basel - Dreispitz MParc","fm",7.6038713,47.5393434,"Münchensteinerstrasse 200","4053"
"72","Basel - Efringer","mm",7.5965886,47.5691589,"Efringerstrasse 32","4057"
"73","Basel - Eglisee","m",7.6152494,47.5701213,"Riehenstrasse 315","4058"
"74","Basel - Flughafenstrasse","shell",7.5695768,47.5694998,"Flughafenstrasse 100","4056"
"75","Basel - Gundelitor","mm",7.5922222,47.5435146,"Güterstrasse 180","4053"
"76","Basel - Hardstrasse","m",7.60725,47.5493666,"Hardstrasse 105","4052"
"77","Basel - Inselstrasse","dmp",7.5906325,47.577495,"Inselstrasse 63","4057"
"78","Basel - Juniors Market","m",7.6017522,47.5585931,"Grenzacherstrasse 62/64","4058"
"79","Basel - Lachenstrasse","dmp",7.5697693,47.568176,"Lachenstrasse 1","4056"
"80","Basel - Lehenmatt","dmp",7.620699,47.5471518,"Lehenmattstrasse 260","4052"
"81","Basel - Märtplatz","m",7.5877372,47.5592591,"Eisengasse 12","4051"
"82","Basel - Mülhauser","m",7.5796836,47.5685421,"Mülhauserstrasse 70-72","4056"
"83","Basel - Neuweiler","m",7.5642044,47.5469569,"Neuweilerplatz 7","4054"
"84","Basel - Schützenmatt","m",7.581231,47.555886,"Schützenmattstrasse 27","4051"
"85","Basel - Stücki","m",7.5957171,47.579952,"Hochbergerstrasse 70","4057"
"86","Basel - Wanderstrasse","dmp",7.564058,47.5524703,"Wanderstrasse 121","4054"
"87","Basel - Wasgenring","dmp",7.5647563,47.5612305,"Blotzheimerstrasse 61","4055"
"88","Basel - Zürcherstrasse","dmp",7.6150933,47.55512,"Zürcherstrasse 160","4052"
"89","Basel Hochbergstrasse","mgls",7.5942316,47.580954,"Hochbergstrasse 106","4057"
"90","Basel Weil","mgls",7.60347,47.593856,"Autobahn Raststätte A2/A5","4016"
"91","Bassersdorf","mm",8.6298002,47.4422909,"Baltenswilerstrasse 5a","8303"
"92","Bauma","m",8.8775133,47.3681049,"Heinrich - Gujerstrasse 10","8494"
"93","Bavois-Alpes","shell",6.570611,46.6739849,"Restoroute de Bavois","1372"
"94","Bavois-Jura","shell",6.5693753,46.6736156,"Restoroute de Bavois","1372"
"95","Bazenheid","m",9.0682158,47.4126848,"Wilerstrasse 17","9602"
"96","Belfaux","m",7.1131443,46.8259234,"route de Lossy 16b","1782"
"97","Bellinzona","shell",9.0395113,46.2139534,"Autostrada Nord","6500"
"98","Bellinzona","soca",9.0289299,46.1991221,"Via San Gottardo","6500"
"99","Bellinzona - Piazza del Sole","mm",9.0243305,46.1937973,"Piazza Rinaldo Simen 8","6500"
"100","Bellinzona Outlet","spez",9.013277,46.1861062,"Via Franco Zorzi","6500"
"101","Bellinzona-Nord","pica",9.0382178,46.2065522,"Via San Gottardo 104","6500"
"102","Belp","mm",7.4926529,46.8964728,"Steinbachstrasse 28","3123"
"103","Berikon - Mutschellen","m",8.3664932,47.3631663,"Bellikerstrasse 13","8965"
"104","Beringen","m",8.5838803,47.6963713,"Schaffhauserstrasse 72","8222"
"105","Bern - Bachmätteli","mm",7.3900576,46.9392241,"Bottigenstrasse 7","3018"
"106","Bern - Bahnhof","mm",7.4401642,46.949378,"Bahnhofplatz 10","3011"
"107","Bern - Bahnhof Take Away","mr",7.4395076,46.9488819,"Bahnhofplatz 10","3011"
"108","Bern - Bethlehem","mm",7.3832855,46.9475326,"Riedbachstrasse 10","3027"
"109","Bern - Breitenrain","m",7.4532328,46.9580156,"Breitenrainstrasse 11","3013"
"110","Bern - Bubenberg","mm",7.4379673,46.9474381,"Bubenbergplatz 8","3011"
"111","Bern - Bümpliz","soca",7.3965641,46.9488786,"Bümplizstrasse 8","3027"
"112","Bern - Christoffel","m",7.4401581,46.9475739,"Christoffelunterführung","3011"
"113","Bern - Egghölzli","m",7.475067,46.9368899,"Egghölzlistrasse 1 / 1a","3006"
"114","Bern - Egghölzli","mgls",7.4751852,46.9368988,"Egghölzlistrasse 1","3006"
"115","Bern - Eigerplatz","m",7.4320705,46.9399808,"Seftigenstrasse 1","3007"
"116","Bern - Fellerstrasse","mgls",7.384876,46.9464,"Fellerstrasse 33","3027"
"117","Bern - Freudenberg","mm",7.4727611,46.9454091,"Giacomettistrasse 15","3006"
"118","Bern - Kirchenfeld","m",7.4531633,46.9421839,"Thunstrasse 18","3005"
"119","Bern - Lorraine","m",7.4465984,46.9559292,"Dammweg 9","3013"
"120","Bern - Marktgasse","mmm",7.4448371,46.9482654,"Marktgasse 46","3011"
"121","Bern - Marktgasse Fachmarkt","fm",7.445796,46.9481395,"Marktgasse 28-32","3011"
"122","Bern - Murifeld","m",7.4811263,46.9395518,"Jupiterstrasse 15","3015"
"123","Bern - Stöckacker","m",7.3992866,46.944202,"Bethlehemstrasse 110","3018"
"124","Bern - Wankdorf","mgls",7.4659375,46.9658677,"Winkelriedstrasse 10","3014"
"125","Bern - Wankdorf MParc","fm",7.4589773,46.9654266,"Wankdorffeldstrasse 90","3014"
"126","Bern - Welle 7","m",7.4369117,46.9480604,"Schanzenstrasse 5","3000"
"127","Bern - Westside","mm",7.3743954,46.9455311,"Gilberte-de-Courgenay-Platz 4","3027"
"128","Bern - Westside","mgls",7.3706941,46.9433611,"Riedbachstrasse 104","3027"
"129","Bern - Winkelried","mm",7.4639574,46.9658664,"Wankdorffeldstrasse 71","3014"
"130","Bern - Zähringer","mm",7.4336574,46.9553183,"Zähringerstrasse 43","3012"
"131","Bern Westflügel","m",7.3953525,46.9467745,"Bethlehemstrasse 40","3027"
"132","Bex","m",7.015988,46.2504679,"Rue Centrale 43-45","1880"
"133","Biasca","m",8.9721457,46.3535809,"Via General Guisan 26","6710"
"134","Biasca","pica",8.969252,46.3587333,"Via Gen. Guisan 2","6710"
"135","Biberist","m",7.5617677,47.1831041,"Hauptstrasse 21","4562"
"136","Biberist","soca",7.5532515,47.1898607,"Holzackerstrasse 1","4562"
"137","Biel - Bielerhof","mm",7.2440832,47.1349461,"Bahnhofstrasse 15","2502"
"138","Biel - Bözingen","m",7.2671886,47.1518033,"Schlösslistrasse 7","2504"
"139","Biel - Madretsch","mm",7.2523976,47.1320095,"Brüggstrasse 5","2503"
"140","Biel - Neumarkt","mm",7.2474512,47.1407132,"Kanalgasse 36-38","2502"
"141","Biel Stadion","m",7.2822405,47.1559201,"Sportallee 20","2503"
"142","Binningen","mig",7.5719652,47.5377117,"Hauptstrasse 129","4102"
"143","Binningen - Gorenmatt","mm",7.5729746,47.5324671,"Gorenmattstrasse 17","4102"
"144","Binningen - Zentrum","m",7.5742852,47.5412885,"Hauptstrasse 71","4102"
"145","Bioggio","pica",8.9123616,46.0164899,"Strada Regina 23","6934"
"146","Birmensdorf","m",8.4367541,47.3541611,"Zürcherstrasse 15","8903"
"147","Birmensdorf","shell",8.4297103,47.3654476,"Industriestrasse 1","8903"
"148","Birsfelden","mm",7.6242615,47.5554924,"Chrischonastrasse 2","4127"
"149","Birsfelden","mgls",7.6255831,47.5497163,"Rheinfelderstr. 10","4127"
"150","Bischofszell","m",9.2441346,47.4925953,"Steigstrasse 5","9220"
"151","Bischofszell","mig",9.2414237,47.492215,"Poststrasse 3","9220"
"152","Bitsch","dmp",8.0160849,46.338042,"Furkastrasse","3982"
"153","Bière","dmp",6.3321026,46.5380702,"Le Centre","1145"
"154","Blonay","m",6.8952017,46.4644668,"Route du Village 37","1807"
"155","Bolligen","mig",7.4968721,46.9701472,"Bolligenstrasse 90","3065"
"156","Bonstetten","dmp",8.4722931,47.3254148,"Schachenstrasse 115","8906"
"157","Boswil","mgls",8.316425,47.2979933,"Muristrasse 8","5623"
"158","Boudry","mgls",6.8454068,46.9539937,"Route de vignoble 13","2017"
"159","Breitenbach - Wydehof","mm",7.542466,47.4083107,"Laufenstrasse 4","4226"
"160","Bremgarten","shell",8.3262155,47.3556302,"Wohlerstrasse 18","5620"
"161","Bremgarten","mig",8.3457318,47.3513448,"Zürcherstrasse 8","5620"
"162","Bremgarten AG","mm",8.3497522,47.3526495,"Zufikerstrasse 2","5620"
"163","Bremgarten Fachmarkt","fm",8.3498121,47.3522802,"Zufikerstrasse 4","5620"
"164","Bremgarten Kalchacker","m",7.4375202,46.9753771,"Kalchackerstrasse 9","3047"
"165","Brienz","m",8.0282209,46.755197,"Hauptstrasse 51","3855"
"166","Brig","mm",7.9893511,46.3184112,"Belalpstrasse 1","3900"
"167","Brissago","pica",8.7060466,46.1145732,"Via R. Leoncavallo 62","6614"
"168","Bronschhofen","m",9.0325903,47.4807063,"Amp-Strasse 2","9552"
"169","Brugg","mig",8.2082727,47.4828987,"Neumarkt 1","5200"
"170","Brugg - Neumarkt","mmm",8.2092555,47.4822516,"Neumarkt 1","5200"
"171","Brugg AG","mgls",8.2203454,47.4917188,"Zurzacherstrasse 83","5200"
"172","Brugg Campus","mr",8.2118356,47.4812711,"Bahnhofstrasse 5","5210"
"173","Brugg SportXX","spez",8.2081207,47.483265,"Hauptstrasse 2","5200"
"174","Brunnen - Bahnhofsmärcht","m",8.608986,46.99991,"Bahnhofplatz 19","6440"
"175","Brusino-Arsizio 1","pica",8.919178,45.914485,"Via al Confine","6827"
"176","Brügg","mig",7.278243,47.1236832,"Bahnhofstrasse 8","2555"
"177","Brügg - Centre Brügg","mmm",7.267001,47.119664,"Erlenstrasse 40","2555"
"178","Bubendorf","mm",7.7432173,47.4568583,"Grüngenstrasse 1","4416"
"179","Buchrain - Tschannhof","m",8.3488964,47.0954005,"Unterdorfstrasse","6033"
"180","Buchs AG - Wynecenter","mmm",8.0889759,47.3846372,"Bresteneggstrasse 9b","5033"
"181","Buchs Outlet","spez",9.4787211,47.164196,"Heldaustrasse 66","9470"
"182","Buchs SG","mm",9.4725984,47.1642154,"Churerstrasse 10","9470"
"183","Buchs SG - MParc","fm",9.4734086,47.1643081,"Churerstrasse 5","9470"
"184","Bulle","mgls",7.0563577,46.6233565,"Rue de l'Europe 82","1630"
"185","Bulle - Gruyère-Centre","mmm",7.0574539,46.6232086,"Rue Château d'En-Bas 2","1630"
"186","Buochs","m",8.4159724,46.9777789,"Ennetbürgerstrasse 45","6374"
"187","Burgdorf","mgls",7.6005253,47.068533,"Kirchbergstrasse 235","3400"
"188","Burgdorf - Neumarkt","mm",7.6208431,47.0592476,"Lyssachstrasse 27","3400"
"189","Burgdorf Fachmarkt","fm",7.6249767,47.0599893,"Poststrasse 1","3400"
"190","Bursins","soca",6.2972544,46.4446744,"La Côte / A1 Sud","1183"
"191","Bussigny","mm",6.5530928,46.5475444,"Rue de la Gare 2","1030"
"192","Bussigny","mig",6.551894,46.5476654,"Place de la Gare 1","1030"
"193","Bülach","mgls",8.5443391,47.5117034,"Zürichstrasse 57/59","8180"
"194","Bülach - Sonnenhof","mm",8.5399087,47.5209712,"Bahnhofstrasse 28","8180"
"195","Bülach Süd","mmm",8.5392376,47.5096113,"Feldstrasse 85","8180"
"196","Bürglen/Altdorf - Urnertor","mm",8.6512831,46.8727937,"Gotthardstrasse 67","6460"
"197","Bütschwil","m",9.0730977,47.3631624,"Landstrasse 41","9606"
"198","Cadenazzo","pica",8.9385826,46.1521213,"Via Cantonale","6593"
"199","Café au Léopold","dmp",7.007772,47.011913,"Fleur-de-Lys 26","2074"
"200","Camorino","soca",9.0015256,46.1670889,"In Tirada","6528"
"201","Capolago","pica",8.9829846,45.9099345,"Via Carlo Maderno 56","6825"
"202","Carouge","m",6.1407522,46.1834886,"Rue du Marché 16","1227"
"203","Carouge - Acacias","m",6.1376221,46.1914417,"Rue Gustave-Revilliod 4","1227"
"204","Carouge - MParc La Praille","fm",6.1343696,46.1844407,"Avenue Vibert 32","1227"
"205","Carouge - Vibert","mm",6.1344054,46.1824507,"Avenue Vibert 29","1227"
"206","Caslano","m",8.8766875,45.9769776,"Via Stazione 80","6987"
"207","Caslano","pica",8.8772401,45.9798317,"Via Cantonale 36","6987"
"208","Caslano-Pura","pica",8.8697849,45.9740608,"Via Colombera 36","6984"
"209","Centro Agno","mmm",8.9054575,45.9982691,"Via Lugano 21","6982"
"210","Centro S.Antonino","mmm",8.9618543,46.1538454,"Via Serrai 5","6592"
"211","Centro S.Antonino OBI","fm",8.9595539,46.1544523,"Via Serrai 3","6592"
"212","Cernier","mm",6.9017185,47.0580103,"Rue Comble-Emine 5","2053"
"213","Cham","shell",8.4716866,47.1826816,"Zugerstrasse 82","6330"
"214","Cham - Neudorf","m",8.4615098,47.1817739,"Zugerstrasse 15/17","6330"
"215","Chamoson","dmp",7.2233814,46.2020085,"Chemin Neuf 2","1955"
"216","Chavannes - Renens","m",6.5763873,46.5364692,"Avenue du Tir-Fédéral 12","1022"
"217","Chavannes La Cerisaie Outlet","spez",6.5674249,46.5282782,"Route de la Maladière 6","1022"
"218","Cheseaux","shell",6.6013953,46.5825542,"Route de Genève 9a","1033"
"219","Chez-le-Bart - Béroche","m",6.7838713,46.8996814,"Rue de Combamare 21","2025"
"220","Chiasso","mig",9.0318296,45.832094,"Palazzo Stazione, Via Motta","6830"
"221","Chiasso - Boffalora","m",9.0240412,45.8373775,"Via Bernardino Luini","6830"
"222","Chiasso Via Como","pica",9.0338472,45.8379393,"Via Como 7","6830"
"223","Chiasso-Pedrinate1","pica",9.0055867,45.8214687,"Via Tinelle 20","6832"
"224","Chur","mgls",9.5127989,46.8515538,"Rheinfelsstrasse 2","7000"
"225","Chur - Calandapark","mm",9.5136033,46.8461969,"Pargherastrasse 1-3","7000"
"226","Chur - Gäuggeli","mm",9.5275536,46.8515396,"Gäuggelistrasse 28","7000"
"227","Chur - Kalchbühl","fm",9.5105226,46.8466009,"Kalchbühlstrasse 16","7000"
"228","Chur - Ringstrasse","m",9.5207396,46.8577894,"Ringstrasse 91","7000"
"229","Chur - West","soca",9.5344566,46.8731603,"Stellenweg 6","7000"
"230","Chur Masans","m",9.5346776,46.8717233,"Masanserstrasse 240","7000"
"231","Chur-Ost","soca",9.5339975,46.8729209,"Deutsche Strasse 5","7000"
"232","Churwalden","m",9.543758,46.7779744,"Hauptstrasse 146","7075"
"233","Châtel-St-Denis","mm",6.9048889,46.5237831,"Rte de Montreux 56","1618"
"234","Chêne-Bougeries","shell",6.1865501,46.2033483,"Ch. de la Gradelle 40","1224"
"235","Chêne-Bourg","mm",6.1943164,46.1963267,"Avenue de Bel-Air 12","1225"
"236","Clarens - Centre","m",6.8934821,46.4412673,"Rue du Léman 9","1815"
"237","Cointrin","mgls",6.1073222,46.2253308,"Av. Louis-Casaï 74/76","1216"
"238","Coldrerio-Paese","pica",8.9853133,45.8577734,"Via S. Gottardo 37","6877"
"239","Collombey","mm",6.9566145,46.2652306,"Entre-deux-Fossaux","1868"
"240","Collombey","mgls",6.9531105,46.2672488,"Pré du Pont 103","1868"
"241","Collonge-Bellerive - Vésenaz","mm",6.1995331,46.2409626,"Route de Thonon 55","1245"
"242","Colombier","m",6.8517986,46.9672459,"Avenue de la Gare 16","2013"
"243","Conthey","mgls",7.3014206,46.2245292,"Route Cantonale 25","1964"
"244","Conthey - Forum des Alpes","mmm",7.3009436,46.2235391,"Route des Rottes 15","1964"
"245","Cortaillod","m",6.8429599,46.9442979,"Chemin de Ronzi 2","2016"
"246","Cossonay","m",6.5066553,46.6137634,"Route des Chavannes 1","1304"
"247","Courtepin","m",7.1201102,46.8656187,"Route de l'Industrie 25","1784"
"248","Crans-Montana","m",7.4732188,46.3094446,"Route du Rawyl 32","3963"
"249","Crissier","mmm",6.5690604,46.5543608,"Chemin du Closalet 7","1023"
"250","Crocifisso di Savosa","m",8.9413299,46.0164918,"Via San Gottardo 150","6942"
"251","Cugy","m",6.6414782,46.5877538,"Route de Bottens 1","1053"
"252","D+G Losone","fm",8.7715623,46.1667017,"Via dei Pioppi 2A","6616"
"253","Daily Biel","mr",7.2457052,47.1357037,"Bahnhofstrasse 38","2502"
"254","Daily Zürich-Zollstrasse","m",8.5369492,47.3798176,"Zollstrasse 6","8005"
"255","Davos - Rätia","m",9.8213178,46.7936512,"Promenade 40","7270"
"256","Davos Dorf","mig",9.8419154,46.8096852,"Bahnhofstrasse","7260"
"257","Davos Symondpark","mm",9.8327029,46.8015209,"Promenade 105","7270"
"258","Davos-Dorf","m",9.8382834,46.8073239,"Promenade 146","7260"
"259","Degersheim","m",9.1965728,47.3724798,"Hauptstrasse 81","9113"
"260","Delémont","mm",7.34649,47.3635367,"Rue de la Maltière 12","2800"
"261","Delémont - MParc","fm",7.3568451,47.3613406,"Rue Emile-Boéchat 79","2800"
"262","Derendingen","m",7.5836013,47.1974163,"Hauptstrasse 22","4552"
"263","Dielsdorf","mm",8.4644704,47.4807739,"Ruchwiesenstrasse 2","8157"
"264","Dielsdorf","mgls",8.4516463,47.4859688,"Wehntalerstrasse 4","8157"
"265","Dielsdorf","mgls",8.46472,47.4813293,"Ruchwiesenstrasse 1","8157"
"266","Diepoldsau","m",9.6562685,47.3857976,"Hintere Kirchstrasse 1","9444"
"267","Dierikon Outlet","spez",8.3630434,47.0954723,"Industriestrasse 1","6036"
"268","Diessenhofen","m",8.7521372,47.6859558,"Bahnhofstrasse 15","8253"
"269","Dietikon - Bernstrasse","mgls",8.3956104,47.3841388,"Bernstrasse 386","8953"
"270","Dietikon - Limmatfeld","m",8.4051555,47.4090317,"Uberlandstrasse 22","8953"
"271","Dietikon - Löwenzentrum","mm",8.4018695,47.4051079,"Löwenstrasse 28","8953"
"272","Dietlikon","shell",8.620246,47.4147399,"Neue Winterthurerstrasse 15","8305"
"273","Dietlikon - Brunnenwiese","m",8.6216426,47.4191512,"Pappelstrasse 2","8305"
"274","Domat-Ems","m",9.4653889,46.8372082,"Via La Val 1","7013"
"275","Domdidier","m",7.0092891,46.8653776,"Grand-Rhain 54","1564"
"276","Dornach","m",7.6119786,47.4881024,"Wollmattweg 7","4143"
"277","Däniken","shell",7.9825917,47.3564228,"Hauptstrasse 58","4658"
"278","Döttingen","m",8.2560765,47.5742916,"Hauptstrasse 17","5312"
"279","Dübendorf","mm",8.6176152,47.3982605,"Unterdorfstrasse 7","8600"
"280","Dübendorf","mig",8.6234613,47.3999075,"Bettlistrasse 3","8600"
"281","Dübendorf - Bühlwiesen","soca",8.6051913,47.3983776,"Ringstrasse 17","8600"
"282","Dübendorf - Hochbord Nord","fm",8.6033991,47.4012381,"Neugutstrasse 83","8600"
"283","Dübendorf - Im Giessen","shell",8.6074055,47.4032249,"Ueberlandstrasse 97","8600"
"284","Dübendorf - Sonnental","shell",8.6060292,47.3954996,"Zürcherstrasse 89","8600"
"285","Dübendorf - Zur Schmiede","soca",8.6231363,47.3963241,"Usterstrasse 44","8600"
"286","Düdingen","mm",7.19207,46.8469871,"Käsereistrasse 3","3186"
"287","Ebikon - Ladengasse","mm",8.3408568,47.0811001,"Zentralstrasse 16","6030"
"288","Ebikon - Mall of Switzerland","mmm",8.3588978,47.0939482,"Ebisquare-Strasse 1","6030"
"289","Ebmatingen","m",8.6432014,47.350978,"Zürichstrasse 108","8123"
"290","Ebnat-Kappel","m",9.1197808,47.2664736,"Kapplerstrasse 16","9642"
"291","Echallens","mm",6.6360482,46.6388941,"Rue de Praz-Palud 2","1040"
"292","Ecublens - Croset","mm",6.5649077,46.5345194,"chemin du Croset 7","1024"
"293","Ecublens - EPFL","m",6.5645584,46.5230466,"Louis Favre 8A","1024"
"294","Effretikon","soca",8.6871464,47.4296167,"Rikonerstrasse 20","8307"
"295","Effretikon","mig",8.6864773,47.4258578,"Bahnhofstrasse 20","8307"
"296","Effretikon - Effi-Märt","mm",8.6857324,47.4281027,"Märtplatz 5","8307"
"297","Egerkingen - Gäupark","mm",7.8021889,47.3176513,"Hausimollstrasse 1","4622"
"298","Egg","mm",8.6920507,47.3028535,"Gewerbestrasse 2-10","8132"
"299","Eglisau","shell",8.5159717,47.5808035,"Schaffhauserstrasse 39","8193"
"300","Eglisau-Nord","m",8.5139362,47.5792535,"Bauelenzelgstrasse 16","8193"
"301","Egnach","mgls",9.371741,47.5490761,"Romanshornerstr. 129","9322"
"302","Egolzwil - Schötz","m",7.9838253,47.1826526,"Grosmatt 1","6243"
"303","Einsiedeln","mm",8.7459076,47.1287061,"Eisenbahnstrasse 2","8840"
"304","Einsiedeln","mig",8.7441361,47.1279567,"Bahnhofplatz 1","8840"
"305","Elgg","m",8.8617399,47.4983247,"St. Gallerstrasse 16","8353"
"306","Embrach","mm",8.5917376,47.5101139,"Bülacherstrasse 17","8424"
"307","Emmen - Kapf","m",8.2738074,47.0898808,"Kapfstrasse 3","6020"
"308","Emmen - Wohncenter","mm",8.2930347,47.0737906,"Seetalstrasse 50","6020"
"309","Emmenbrücke","mgls",8.2792234,47.0724171,"Gerliswilstrasse 24","6020"
"310","Emmenbrücke - Sonnenplatz","mm",8.2752688,47.0779516,"Sonnenplatz 1","6020"
"311","Engelberg","m",8.4057173,46.8207122,"Klosterstrasse 5","6390"
"312","Epalinges","mm",6.6708585,46.5485622,"Place de la Croix-Blanche 11","1066"
"313","Erde","dmp",7.2878921,46.2376096,"Scex-Riond / CP 48","1976"
"314","Erlenbach - Erlibacher Märt","m",8.5904643,47.3070068,"Bahnhofstrasse 42","8703"
"315","Erlinsbach","m",8.0084956,47.4053477,"Zentrum Rössli","5018"
"316","Erstfeld","m",8.6500662,46.8251526,"Gotthardstrasse 144","6472"
"317","Eschenbach","m",8.92332,47.2408601,"Rickenstrasse 12","8733"
"318","Estavayer-le-Lac","mm",6.8513418,46.847963,"Route de la Chapelle 24","1470"
"319","Etoy","m",6.4259736,46.4737122,"Route Suisse 26","1163"
"320","Etoy","mgls",6.4185074,46.474662,"Rte Noyer Girod 1","1163"
"321","Etoy (marché spécialisé)","fm",6.4181966,46.4745693,"Route de Noyer-Girod 3","1163"
"322","Etrembières (F)","mmm",6.2322629,46.1810413,"CC Shopping-Etrembières","74112"
"323","Ettingen","mm",7.5468089,47.4844491,"Therwilerstrasse 9","4107"
"324","Eyholz - Outlet","spez",7.9069943,46.2939983,"Alte Kantonsstrasse 7","3931"
"325","FL - Balzers","dmp",9.5121868,47.0752919,"Landstrasse 20","9496"
"326","FL - Ruggell","dmp",9.5235234,47.2403159,"Landstrasse 33","9491"
"327","Fahrwangen","m",8.2432889,47.2942089,"Hintergasse 12","5615"
"328","Fahrweid - Limmatbrücke","shell",8.4112031,47.4069007,"Uberlandstrasse","8951"
"329","Faido","m",8.7997979,46.4780639,"Via Pian della Croce","6760"
"330","Fehraltorf","m",8.755505,47.3866248,"Grundstrasse 4","8320"
"331","Fiesch","m",8.1355669,46.4040003,"Furkastrasse 46","3984"
"332","Fislisbach","m",8.2908926,47.4363454,"Badenerstrasse 7d","5442"
"333","Flamatt","m",7.3191353,46.8896931,"Bernstrasse 36","3175"
"334","Flamatt - Bernstrasse 50","mgls",7.323263,46.8899632,"Bernstrasse 50","3175"
"335","Flawil","mm",9.1863798,47.4130548,"Magdenauerstrasse 10","9230"
"336","Flawil","mig",9.1890751,47.4155516,"Bahnhofplatz 8","9230"
"337","Fleurier","mm",6.5805278,46.9020353,"Grand-Rue 27","2114"
"338","Forch","shell",8.6666553,47.3176005,"Forchstrasse","8127"
"339","Fornasette","pica",8.7995044,45.9923867,"Via Cantonale 128","6996"
"340","Frauenfeld - Bahnhofstrasse","mig",8.896282,47.5572448,"Bahnhofstrasse 76a","8500"
"341","Frauenfeld - Multiplex","m",8.9052823,47.565858,"Langfeldstrasse 53a","8500"
"342","Frauenfeld - Passage","mm",8.8963904,47.557151,"Bahnhofplatz 70-72","8500"
"343","Frauenfeld - Zeughausstrasse","m",8.900735,47.5597074,"Zürcherstrasse 227","8500"
"344","Frauenfeld - Zürcherstrasse 276","mgls",8.9055846,47.5620839,"Zürcherstrasse 276","8500"
"345","Frauenfeld - Zürcherstrasse 291","shell",8.9077074,47.5633973,"Zürcherstrasse 291","8500"
"346","Freienbach","shell",8.7642881,47.2040089,"Kantonsstrasse 149","8807"
"347","Frenkendorf","mig",7.7192242,47.5015382,"Güterstrasse 1","4402"
"348","Fribourg - Beauregard","m",7.1444374,46.8006068,"Chemin de Béthléem 7","1700"
"349","Fribourg - Pérolles","mm",7.152315,46.7997003,"Boulevard de Pérolles 21 A","1700"
"350","Fribourg - Schoenberg","m",7.1723464,46.8097786,"Chemin Cité-des-Jardins 13A","1700"
"351","Fribourg - St. Pierre M-Express","m",7.1543652,46.8034025,"Rue St-Pierre 2","1700"
"352","Fribourg AMAG","soca",7.1337955,46.7992026,"Route de Villars 108","1752"
"353","Fribourg Jura","soca",7.139124,46.8114955,"Route du Jura 73","1700"
"354","Fribourg Ste-Thérèse","mm",7.1490104,46.8101267,"Route de Sainte-Thérèse 2a","1700"
"355","Frick","m",8.0188978,47.5080226,"Hauptstrasse 44","5070"
"356","Frutigen","m",7.6483603,46.5856019,"Kanderstegstrasse 31","3714"
"357","Fully","m",7.1195505,46.136455,"Rue de Provence 4","1926"
"358","Fällanden","m",8.6409527,47.3739538,"Unterdorfstrasse 2","8117"
"359","Füllinsdorf","fm",7.7249788,47.5011982,"Hammerstrasse 5","4414"
"360","Füllinsdorf","mgls",7.7213368,47.5076558,"Rheinstrasse 46","4414"
"361","Füllinsdorf","soca",7.7226765,47.4993352,"Rheinstrasse 2","4414"
"362","Füllinsdorf - Schönthal","mm",7.7251059,47.502619,"Ergolzstrasse 2","4414"
"363","Gandria","pica",9.0059322,46.0073342,"Strada Cantonale","6978"
"364","Gd Saconnex - Le Pommier","m",6.1195597,46.2285152,"Rue Sonnex 20","1218"
"365","Gebenstorf","m",8.2443692,47.4900828,"Wambisterstrasse","5412"
"366","Gelterkinden","mm",7.8506659,47.4660758,"Badweg 2","4460"
"367","Genestrerio","pica",8.9661279,45.8550221,"Via Canova 7","6852"
"368","Genève - Balexert","mmm",6.1129757,46.2187738,"Avenue Louis-Casaï 27","1211"
"369","Genève - Balexert","mgls",6.1129989,46.2189827,"Av. Louis Casaï 27","1209"
"370","Genève - Champel","mm",6.152497,46.1907663,"Avenue de Champel 61","1206"
"371","Genève - Charmilles","mm",6.1231482,46.2082241,"Promenade de l'Europe 11","1203"
"372","Genève - Cointrin","soca",6.1078241,46.224419,"Avenue Louis-Casaï 73","1216"
"373","Genève - Cointrin Aéroport","m",6.1102265,46.2312856,"Route de l'Aéroport 25","1215"
"374","Genève - Cornavin Gare","m",6.1422156,46.2098132,"Place de Cornavin 3-7","1201"
"375","Genève - Eaux-Vives","mm",6.1585088,46.2039608,"Rue des Eaux-Vives 17-19","1207"
"376","Genève - Fusterie M-Express","m",6.1461998,46.2039287,"Place de la Fusterie 7","1204"
"377","Genève - Jonction","mm",6.1306224,46.2007896,"Boulevard Carl-Vogt 6","1205"
"378","Genève - Les Cygnes","mm",6.1449087,46.2113723,"Rue de Lausanne 18-20","1201"
"379","Genève - Navigation","mm",6.14974,46.212579,"Rue des Paquis 41","1201"
"380","Genève - Plainpalais","mm",6.1435018,46.1931467,"Rue de Carouge 64","1205"
"381","Genève - Rieu","mm",6.1639476,46.1919217,"Route de Florissant 86","1206"
"382","Genève - Servette","mm",6.1296584,46.2134099,"Rue de la Servette 93","1202"
"383","Genève - Tourelle","m",6.1258169,46.2243865,"Chemin de la Tourelle 2-4","1209"
"384","Genève - Vidollet","m",6.1391683,46.2162367,"Rue du Vidollet 5","1202"
"385","Genève - Villereuse","mm",6.1588299,46.2007706,"Rue de la Terrassière 29","1207"
"386","Genève Montbrillant","shell",6.1404602,46.2198335,"Rue de Montbrillant 67","1207"
"387","Gerlafingen","m",7.5740858,47.1710372,"Friedhofstrasse 1","4563"
"388","Giubiasco - Alle Bolle","m",9.0136059,46.178211,"Via Bellinzona 33","6512"
"389","Givisiez","mgls",7.1370774,46.8119849,"Impasse de la Colline 2","1762"
"390","Gland","m",6.2756695,46.4170516,"Rue de Mauverney 22","1196"
"391","Gland","mgls",6.2724682,46.4149466,"Avenue du Mont-Blanc 34","1196"
"392","Glarus","mig",9.0714747,47.0399224,"Bahnhofplatz 2","8750"
"393","Glarus - Zentrum Glärnisch","mm",9.0708899,47.0406732,"Schweizerhofstrasse 6","8750"
"394","Glattbrugg","m",8.567435,47.4340313,"Wallisellerstrasse 8","8152"
"395","Glattbrugg","soca",8.5590956,47.4289402,"Schaffhauserstrasse 40","8152"
"396","Glattbrugg","mig",8.5595076,47.4308194,"Europastrasse 3","8152"
"397","Glis - Simplon","mmm",7.9695103,46.3089074,"Kantonsstrasse 58","3902"
"398","Goldach","m",9.4677839,47.474811,"Ulrich-Rösch-Strasse 5","9403"
"399","Goldach - Bahnhofplatz","mig",9.4678557,47.47391,"Bahnhofplatz 1","9403"
"400","Goldach - St.Gallerstr.","mgls",9.4754725,47.4787605,"St. Gallerstrasse 34","9403"
"401","Goldau","m",8.5509906,47.0510085,"Parkstrasse 25","6410"
"402","Gossau","mm",9.2563798,47.4175531,"St. Gallerstrasse 115","9200"
"403","Gossau","mig",9.2530635,47.4119054,"Bahnhofplatz 2","9200"
"404","Gossau - Stadtbühlpark","m",9.2504373,47.4119695,"Stadtbühlstrasse 12","9200"
"405","Gossau - Wilerstrasse","mgls",9.2343749,47.4194624,"Wilerstrasse 90","9200"
"406","Gossau Outlet","spez",9.2811214,47.4089206,"Industriestrasse 135","9201"
"407","Gossau ZH","m",8.7558044,47.3065422,"Im Zentrum 3","8625"
"408","Grabs","dmp",9.4421965,47.1872693,"Staatsstrasse 89","9472"
"409","Gradelle","m",6.1812063,46.2054501,"Chemin de la Gradelle 10","1224"
"410","Grancia","m",8.9263036,45.9712181,"Parco Commerciale Grancia","6916"
"411","Grancia Do it + Garden","fm",8.928254,45.975298,"Via alla Roggia 1","6926"
"412","Grand-Lancy - Palettes","mm",6.1223706,46.1749719,"Av. des Communes-Réunies 52","1212"
"413","Granges - Paccot","m",7.1489877,46.8289721,"Route d'Englisberg 15b","1763"
"414","Granges-Paccot","shell",7.1516595,46.8219444,"Route de Morat 130","1763"
"415","Granges-Paccot - Centre","mm",7.1539379,46.8209959,"route d'Agy 2","1763"
"416","Greifensee","m",8.6796218,47.3678007,"Meierwis","8606"
"417","Grenchen","mm",7.3992644,47.1897743,"Freiestrasse 10","2540"
"418","Grenchen","soca",7.4055558,47.193743,"Solothurnerstrasse 116","2540"
"419","Grenchen Nord","mig",7.3895251,47.1915246,"Nordbahnhofstrasse 43","2540"
"420","Grenchen Outlet","spez",7.4057556,47.1905949,"Maienstrasse 6","2540"
"421","Gränichen","m",8.0979932,47.3598479,"Lindenplatz 2","5722"
"422","Gstaad","mm",7.2825683,46.4782457,"Untergstaadstrasse 3","3780"
"423","Gümligen","m",7.5042952,46.93282,"Turbenweg 1","3073"
"424","Hasle Rüegsau","m",7.6595141,47.0134658,"Emmenau 3","3415"
"425","Haute-Nendaz","m",7.2918787,46.182229,"Lake Placid, rte des Ecluses 23","1997"
"426","Hauterive","shell",6.9730279,47.0100802,"Rte des Rouges-Terres 22-24","2068"
"427","Heiden","m",9.5361583,47.4389521,"Sonnentalstrasse 2","9410"
"428","Hergiswil NW","m",8.311525,46.9845047,"Seestrasse 15","6052"
"429","Herisau - Alpsteinstrasse","m",9.2788104,47.3787332,"Alpsteinstrasse 8b","9100"
"430","Herrlisberg","soca",8.6615398,47.2196201,"Herrlisberg Süd / A3","8820"
"431","Herzogenbuchsee","mm",7.7038612,47.1866422,"Bernstrasse 33","3360"
"432","Hilterfingen","m",7.6586756,46.7353444,"Staatsstrasse 16b","3652"
"433","Hinterkappelen (Provisorium)","m",7.3793063,46.965837,"Kappelenring 11c","3032"
"434","Hinwil","m",8.8446093,47.3003215,"Bachtelstrasse 12","8340"
"435","Hinwil","mig",8.8398702,47.3002442,"Bahnhofplatz","8340"
"436","Hittnau","m",8.8254402,47.3631688,"Jakob Stutz-Strasse 75","8335"
"437","Hitzkirch","m",8.2523733,47.222088,"Richensee 2","6285"
"438","Hochdorf - Seetal-Center","mm",8.2913828,47.1660917,"Hauptstrasse 5","6280"
"439","Hombrechtikon","m",8.7694304,47.2517184,"Rütistrasse 16","8634"
"440","Horgen","mig",8.5898941,47.2587337,"Oberdorfstrasse 50","8810"
"441","Horgen - Schinzenhof","mm",8.5970064,47.2601197,"Alte Landstrasse 24","8810"
"442","Horw","m",8.309017,47.0189983,"Gemeindehausplatz 14+15","6048"
"443","Hunzenschwil","shell",8.1142192,47.386801,"Hauptstrasse 43","5502"
"444","Huttwil","mm",7.8401887,47.1137122,"Bernstrasse 6","4950"
"445","Huttwil","mig",7.8426014,47.1144215,"Bahnhof","4950"
"446","Hägendorf Outlet","spez",7.8315137,47.3286815,"Industriestrasse West 10/40","4614"
"447","Hünibach","m",7.6454474,46.7451794,"Staatsstrasse 134","3626"
"448","Ibach","mgls",8.6463388,47.015464,"Mythen Center","6438"
"449","Ibach-Schwyz - Mythen-Center","mmm",8.646828,47.0155758,"Mythen-Centerstr. 18","6438"
"450","Ilanz - Center Marcau","mm",9.2075797,46.7745715,"Poststrasse 4","7130"
"451","Interlaken","mm",7.8521379,46.6815587,"Rugenparkstrasse 1","3800"
"452","Interlaken","mig",7.852176,46.6831647,"Bahnhofstrasse 37","3800"
"453","Interlaken Lindenalle","mgls",7.8767761,46.6884398,"Lindenallee 98","3800"
"454","Ipsach","m",7.2353249,47.1156818,"Dorfstrasse 1","2563"
"455","Ittigen","mm",7.4852772,46.9742162,"Talweg 6","3063"
"456","Ittigen - Grauholz","soca",7.4778766,46.9897356,"Grauholz-Süd A1","3063"
"457","Jona","soca",8.8438587,47.2296039,"St.Gallerstrasse 84","8645"
"458","Jona - Stadttor","m",8.8373964,47.2314638,"Molkereistrasse 5","8645"
"459","Kaiseraugst","m",7.7299681,47.5349579,"Liebrütistrasse 39","4303"
"460","Kaltbrunn","dmp",9.0242575,47.2132724,"Uznacherstrasse 1","8722"
"461","Kerzers","m",7.1939798,46.9737039,"Murtenstrasse 15","3210"
"462","Kirchberg","mm",7.5808322,47.0889777,"Solothurnstrasse 17","3422"
"463","Kirchberg","shell",9.0564532,47.4390646,"Wilerstrasse 208","9533"
"464","Kirchberg-Stelz","m",9.0568321,47.4388794,"Wilerstrasse 204","9533"
"465","Kloten","mm",8.5820728,47.4505444,"Kirchgasse 5","8302"
"466","Kollbrunn","m",8.7707847,47.4578401,"Tösstalstrasse 24","8483"
"467","Konolfingen","m",7.6212211,46.8754023,"Thunstrasse 21","3510"
"468","Kreuzlingen","m",9.1756501,47.6481842,"Hauptstrasse 63","8280"
"469","Kreuzlingen","mgls",9.2005749,47.6398924,"Romanshornerstr. 111","8280"
"470","Kreuzlingen","soca",9.1649149,47.654965,"Konstanzerstrasse 28","8280"
"471","Kreuzlingen - Seepark","mm",9.1960063,47.6418058,"Bleichestrasse 15","8280"
"472","Kriens","shell",8.2993812,47.0265464,"Mattenhof","6010"
"473","Kriens","mgls",8.2649154,47.0342359,"Obernauerstrasse 47","6010"
"474","Kriens - Hofmatt","mm",8.2826319,47.0338371,"Luzernerstrasse 30","6010"
"475","Kriens - Mattenhof","m",8.30067,47.0267443,"Am Mattenhof 2","6010"
"476","Kölliken","mig",8.0302701,47.3298578,"Autobahnraststätte Kölliken Nord","5742"
"477","Köniz - Bläuacker","mm",7.414453,46.9235082,"Bläuacker 10","3098"
"478","Küsnacht Berg","soca",8.5800114,47.3168924,"Seestrasse 139","8700"
"479","Küsnacht ZH","m",8.5821107,47.3185861,"Zürichstrasse 149","8700"
"480","Küssnacht - Rigimärt","mm",8.4412034,47.0836743,"Siegwartstrasse 11","6403"
"481","La Chaux-de-Fonds - Métropole Centre","mmm",6.8273056,47.1000474,"Rue Daniel-Jeanrichard 23","2300"
"482","La Chaux-de-Fonds Les Eplatures","mm",6.8035521,47.0902073,"Charles Naine 44","2300"
"483","La Neuveville","m",7.0886002,47.0618892,"Chemin des Vergers 20","2520"
"484","La Roche","m",7.1419287,46.6980151,"Haut de Scherwil 2","1634"
"485","La Tour de Trême","mm",7.0758334,46.6004826,"Route de Pra-Riond 2","1635"
"486","La Tour-de-Peilz","m",6.8579143,46.4525336,"Place des Anciens-Fossés 10B","1814"
"487","La Tour-de-Trême","mgls",7.0751656,46.6007953,"Rte de Pra-Riond 4","1635"
"488","La Vallée","m",6.2305712,46.6058382,"Rue de la Gare 7","1347"
"489","Lachen","mm",8.8549009,47.1917747,"Feldstrasse 6","8853"
"490","Lancy-Onex","mm",6.1100997,46.1885214,"Rue des Bossons 78-80","1213"
"491","Landquart","mm",9.561865,46.9677876,"Bahnhofstrasse 54","7302"
"492","Landquart","shell",9.5920821,46.9703193,"Prättigauerstrasse","7302"
"493","Langendorf - Ladedorf","mmm",7.5113259,47.2184063,"Fabrikstrasse 6","4513"
"494","Langenthal","mm",7.785519,47.2131308,"Wiesenstrasse 28","4900"
"495","Langenthal - MParc","fm",7.7880675,47.2193025,"Murgenthalstrasse 17","4900"
"496","Langnau a. A.","m",8.5376553,47.2911414,"Hintere Grundstrasse 2","8135"
"497","Langnau i.E.","mm",7.787702,46.9398058,"Schlossstrasse 1a","3550"
"498","Laufen - Birscenter","mm",7.5018211,47.419968,"Bahnhofstrasse 4","4242"
"499","Lausanne","soca",6.605965,46.517094,"Av. des Figuires 32","1007"
"500","Lausanne - Bellevaux","m",6.6333517,46.5376065,"Route Aloys-Fauquez 97","1018"
"501","Lausanne - Bergières","mm",6.618466,46.5314548,"Avenue des Bergières 50","1004"
"502","Lausanne - Chailly","mm",6.6515176,46.5273163,"Avenue de la Vallonnette 2","1012"
"503","Lausanne - Closelet","mm",6.6327124,46.5148689,"Avenue d'Ouchy 11","1006"
"504","Lausanne - Cour","m",6.6176221,46.5157505,"Avenue de Cour 36","1007"
"505","Lausanne - La Borde","m",6.6346501,46.5256689,"Rue de la Borde 3B","1018"
"506","Lausanne - La Harpe","m",6.62609,46.5124378,"Avenue de la Harpe 17","1007"
"507","Lausanne - La Maladière","shell",6.6073333,46.5170701,"Av. des Figuiers 22","1007"
"508","Lausanne - La Sallaz","m",6.6467899,46.5333108,"Route de Berne 1","1010"
"509","Lausanne - Maupas","dmp",6.6230282,46.5253972,"Rue du Maupas 69","1004"
"510","Lausanne - Montbenon","shell",6.6258276,46.5195069,"Chemin de Mornex 36","1003"
"511","Lausanne - Métropole","mmm",6.6269854,46.5227583,"Rue des Terreaux 25","1003"
"512","Lausanne - Ouchy","m",6.624761,46.5080922,"Avenue de Rhodanie 2","1007"
"513","Lausanne - Pontaise","m",6.6283222,46.5304639,"Avenue Jomini 11","1018"
"514","Lausanne - Saint-Paul","m",6.615942,46.5277032,"Avenue d'Echallens 63","1004"
"515","Lausanne - Sévelin","m",6.6166202,46.5216627,"Av. de Sévelin 2 Ab","1007"
"516","Lausanne - Valmont","shell",6.655375,46.5354753,"Route d'Oron 37","1010"
"517","Lavaux","dmp",6.7105858,46.5051209,"Restoroute de Lavaux","1091"
"518","Le Bouveret","m",6.8606288,46.3773421,"En Bellossy","1897"
"519","Le Châble","dmp",7.2140344,46.080919,"Route de Verbier 15","1934"
"520","Le Landeron","m",7.0607499,47.0563834,"Route de Neuchâtel 40","2525"
"521","Le Lignon","m",6.0963765,46.2034469,"Place du Lignon 29 A","1219"
"522","Le Lignon","shell",6.1094413,46.2064893,"Avenue de l'Ain 5","1219"
"523","Le Locle","mm",6.7477529,47.0561079,"Rue Bournot 35","2400"
"524","Le Locle","soca",6.7606997,47.0637861,"Rue Girardet 27","2400"
"525","Lenzburg","mm",8.1768398,47.3870206,"Bachstrasse 15","5600"
"526","Lenzburg - Bahnhof","mig",8.1703375,47.3911132,"Bahnhofstrasse 50","5600"
"527","Leuk","dmp",7.6342235,46.3166844,"Konsumgenossenschaft","3953"
"528","Leukerbad","m",7.6252028,46.377942,"Kantonstrasse","3954"
"529","Leysin","dmp",7.0155421,46.3452121,"Route de la Cité 16","1854"
"530","Leytron","dmp",7.2085967,46.1872356,"Giro Union","1912"
"531","Liestal","mm",7.7359876,47.4825911,"Kasernenstrasse 8","4410"
"532","Liestal","mig",7.731261,47.4851282,"Bahnhofplatz 11","4410"
"533","Ligornetto","pica",8.9436371,45.8646321,"Via Cantinetta","6853"
"534","Littau Outlet","spez",8.2601648,47.0497563,"Fanghöfli 14","6014"
"535","Locarno","soca",8.7897896,46.1670338,"Via R.Simen 7","6600"
"536","Locarno - Mercato","mm",8.7957267,46.1656809,"Via Stefano Franscini 31","6600"
"537","Locarno - Solduno","m",8.7824201,46.1684941,"Via A. Franzoni 43","6604"
"538","Lostorf","m",7.9478151,47.3831117,"Hauptstrasse 20","4654"
"539","Lugano - Cassarate-Lago","mm",8.9624192,46.0063387,"Viale Castagnola","6900"
"540","Lugano - Città","mmm",8.9517478,46.0070314,"Via Pretorio 15","6900"
"541","Lugano - Molino Nuovo","m",8.9586482,46.0183828,"Via Monte Boglia 5","6900"
"542","Lugano - Paradiso","m",8.9457919,45.9909707,"Via Geretta","6902"
"543","Lugano - Via Trevano","pica",8.956658,46.0184296,"Via Trevano 69","6900"
"544","Lugano-Viganello","pica",8.9634004,46.0106009,"Via al Lido 11","6962"
"545","Lupfig","m",8.2085453,47.4401518,"Flachsacherstrasse 17","5242"
"546","Luzern - Allmend","m",8.3049546,47.0315989,"Zihlmattweg 46","6005"
"547","Luzern - Bahnhof","m",8.3103365,47.0501738,"Zentralstrasse 1","6003"
"548","Luzern - Bahnhof Daily","m",8.3097035,47.0497659,"Zentralstrasse 7","6003"
"549","Luzern - Bruchstrasse","m",8.2990717,47.0506538,"Bruchstrasse 18","6003"
"550","Luzern - Grossmatte","m",8.2633687,47.0494761,"Luzernerstrasse 143","6014"
"551","Luzern - Schlossberg","m",8.3078218,47.0611806,"Friedentalstrasse 6","6004"
"552","Luzern - Schweizerhof","mm",8.3096768,47.054745,"Hertensteinstrasse 9","6004"
"553","Luzern - Schönbühl","mm",8.328723,47.0371053,"Langensandstr. 23","6005"
"554","Luzern - Tribschenstrasse","m",8.3176989,47.0420658,"Tribschenstrasse 66","6005"
"555","Luzern - Waldstätter","m",8.3071716,47.0462259,"Winkelriedstrasse 58","6003"
"556","Luzern - Wesemlin","dmp",8.3168607,47.0624023,"Mettenwylstrasse 16","6006"
"557","Luzern - Würzenbach","m",8.3402123,47.0544761,"Kreuzbuchstrasse 53","6006"
"558","Lyss Lyssbachpark","mm",7.3032619,47.0794603,"Steinweg 28","3250"
"559","M Boudry","m",6.8405634,46.9505063,"Avenue du Collège 37","2017"
"560","M-Express Bulle","m",7.05392,46.6192389,"Place de la Gare","1630"
"561","M-Express Fribourg Gare","m",7.1500941,46.8033304,"Rue Louis-d'Affry 2","1701"
"562","M-Express Pont-Rouge","m",6.1274789,46.1872348,"Esplanade de Pont-Rouge 2","1212"
"563","MP Aigle","dmp",6.9670583,46.3170714,"Rue du Rhone 7","1860"
"564","MP La Sarraz","dmp",6.5094894,46.6539794,"Chemin des Prés-Morés 2","1315"
"565","Maggia","m",8.7058678,46.2455272,"Via Cantonale","6673"
"566","Malters","m",8.1793523,47.0378576,"Weihermatte 7a/7b","6102"
"567","Manno","mgls",8.922815,46.032538,"Strada Cantonale 25","6928"
"568","Marin","mgls",7.0109105,47.0123055,"Route des Perveuils 2","2074"
"569","Marin-Centre","mmm",7.0079209,47.0116002,"Rue Fleur-de-Lys 26","2074"
"570","Marly - Centre","mm",7.1612389,46.7761541,"Route des Pralettes 1","1723"
"571","Martigny","mgls",7.0858975,46.1057968,"Rue des Avouillons 3","1920"
"572","Martigny","mig",7.078928,46.1058182,"Avenue de la gare 53","1920"
"573","Martigny - Manoir","mmm",7.0718577,46.1017023,"Rue du Manoir 1","1920"
"574","Martigny Finettes","m",7.0869748,46.1054118,"Rue des Avouillons 1","1920"
"575","Martigny Quartz Center","fm",7.0765592,46.1117763,"Avenue de Fully 63","1920"
"576","Massagno - Radio","m",8.9390275,46.0097658,"Via Besso 74","6900"
"577","Matten","m",7.8681811,46.6734205,"Aegertiweg 33","3812"
"578","Matzingen","m",8.9221349,47.5268556,"Frauenfelderstrasse 95","9548"
"579","Meggen","mgls",8.3896806,47.0547158,"Gotthardstrasse 45","6045"
"580","Meilen","mm",8.6454362,47.2683937,"Rosengartenstrasse 10","8706"
"581","Meiringen","mm",8.1847964,46.7282562,"Bahnhofstrasse 1","3860"
"582","Melano","m",8.9853335,45.9194213,"Via Cantonale","6818"
"583","Melano","pica",8.9741886,45.9314831,"Via Cantonale 10","6818"
"584","Mellingen","m",8.2668681,47.4130888,"Lenzburgerstrasse 50","5507"
"585","Mels - Pizolpark","mmm",9.4313323,47.0420585,"Einkaufszentrum","8879"
"586","Mendrisio","m",8.9859445,45.8703698,"Via L. Lavizzari 2, Piazza alla Valle","6850"
"587","Mendrisio - Via Franscini","pica",8.9774245,45.8675627,"Via Franscini 2","6850"
"588","Mendrisio Sud","m",8.9713351,45.859934,"Via Campagna Adorna","6850"
"589","Mendrisio-Via Berna","pica",8.9766616,45.8660796,"Via Bernasconi 31","6850"
"590","Mendrisio-Via Zorzi","pica",8.9787787,45.8731313,"Via Zorzi 4","6850"
"591","Menziken","m",8.1865863,47.2416,"Sagiweg 8","5737"
"592","Meyrin","mm",6.0826195,46.2319199,"Avenue de Feuillasse 24","1217"
"593","Meyrin","shell",6.0783775,46.2273525,"Rte de Meyrin 248","1217"
"594","Meyrin","soca",6.0547036,46.2340918,"Rte de Meyrin 372","1217"
"595","Mies","shell",6.1671648,46.2961134,"Route Suisse 3","1295"
"596","Migrol Brig","mgls",7.9663489,46.307879,"Weidenweg 272","3902"
"597","Migrol Muttenz","mgls",7.6558199,47.5269738,"Prattelerstrasse 57","4132"
"598","Migrol Sulgen","mig",9.1887701,47.5321652,"Kradolfstrasse 56","8583"
"599","Minusio - Centro Borenco","m",8.8113912,46.1753162,"Via S.Gottardo 56","6648"
"600","Montagny","mm",6.6213952,46.7879937,"En Chamard","1442"
"601","Montagny","mgls",6.6206996,46.788334,"En Chamard 16","1442"
"602","Monte Carasso","shell",9.0014795,46.1817174,"Autostrada Sud","6513"
"603","Monthey - M Central","mmm",6.9522265,46.2535582,"Avenue de la Gare 36","1870"
"604","Montreux","mm",6.9100946,46.4324309,"Place du Marché 6","1820"
"605","Montreux","soca",6.9053644,46.4394305,"Avenue Claude Nobs 6","1820"
"606","Montreux","mig",6.9103016,46.4358712,"Avenue des Alpes 74","1820"
"607","Morbio Inferiore - Serfontana","mmm",9.0163329,45.8455024,"Viale Serfontana","6836"
"608","Morges","mm",6.4948939,46.509724,"Rue de la gare 19","1110"
"609","Morges","mgls",6.512351,46.5175234,"Route de Lausanne 73","1110"
"610","Moudon","mm",6.8005522,46.6695393,"Avenue de Préville","1510"
"611","Moutier","mm",7.3699663,47.2766759,"Rue de l'Ecluse 1","2740"
"612","Moutier","mig",7.3806655,47.2820245,"Av. de la gare","2740"
"613","Murgenthal","m",7.8289909,47.2649304,"Fahrackerstrasse 1","4853"
"614","Muri AG","mm",8.3419017,47.2720346,"Kirchfeldstrasse 8","5630"
"615","Muri bei Bern - Bike World","spez",7.503635,46.9261433,"Feldstrasse 30","3073"
"616","Murten/Morat","mm",7.1227066,46.9300105,"Bernstrasse 18","3280"
"617","Muttenz","soca",7.6384758,47.530439,"St.Jakobstrasse 75","4132"
"618","Muttenz - Lutzert","m",7.6333891,47.5338563,"Lutzertstrasse 40","4132"
"619","Muttenz - Rothausstrasse","mm",7.6556813,47.5263912,"Rothausstrasse 17","4132"
"620","Männedorf","m",8.6959795,47.2529296,"Alte Landstrasse 262","8708"
"621","Mézières","dmp",6.7698099,46.5963744,"Route de la Croix d'Or 2","1083"
"622","Möhlin","m",7.8469474,47.5563791,"Hauptstrasse 91","4313"
"623","Müllheim","m",9.0003577,47.6001921,"Thurstrasse 3","8555"
"624","Münchenbuchsee - Tanne","m",7.4511193,47.0199113,"Bernstrasse 14","3053"
"625","Münchenstein","soca",7.6038428,47.5258887,"Bruderholzstrasse 43","4142"
"626","Münchenstein - Gartenstadt","mm",7.6069894,47.5215941,"Kaspar Pfeiffer-Strasse 2","4142"
"627","Münchwilen","m",8.9982661,47.4777001,"Wilerstrasse 5","9542"
"628","Münsingen","mm",7.5601405,46.8731986,"Bahnhofplatz 5","3110"
"629","Naters","m",7.9901216,46.3252623,"Kelchbachstrasse 16","3904"
"630","Netstal","soca",9.0540578,47.0621105,"Landstrasse","8754"
"631","Neuchâtel - Cadolles","m",6.9247704,46.9982008,"Rue du Plan 28","2000"
"632","Neuchâtel - Hôpital","mm",6.929815,46.991987,"Rue de l'Hôpital 12","2000"
"633","Neuchâtel - Portes-Rouges","m",6.9553682,47.0040433,"Avenue des Portes-Rouges 46","2000"
"634","Neuenhof","m",8.3275251,47.4501589,"Zürcherstrasse 113","5432"
"635","Neuenkirch","dmp",8.2050715,47.0981822,"Luzernstrasse 16","6206"
"636","Neuhausen","m",8.6178833,47.6810724,"Wildenstrasse 8","8212"
"637","Neuhausen am Rheinfall","shell",8.6214126,47.6858485,"Schaffhauserstrasse 38","8212"
"638","Neunkirch","m",8.5045443,47.6903787,"Löhningerstrasse 4","8213"
"639","Neydens (F)","m",6.0976331,46.123435,"500, route des Envignes 74","74 160"
"640","Neyruz","m",7.0655105,46.7671371,"Place de la Gare 10","1740"
"641","Nidau","mm",7.2463285,47.1263507,"Lyssstrasse 15","2560"
"642","Nidau","soca",7.2429925,47.1196079,"Hauptstrasse 139","2560"
"643","Niederhasli","m",8.4852026,47.4798058,"Dorfstrasse 20","8155"
"644","Niederurnen","m",9.0559104,47.1284992,"Ziegelbrückstrasse 21","8867"
"645","Niederweningen","mig",8.3694621,47.5113037,"Wehntalerstrasse 71","8166"
"646","Noranco","soca",8.9291844,45.9797746,"Via Pian Scairolo 48","6915"
"647","Novazzano-Brusata1","pica",8.9643717,45.8451092,"Via Cios","6883"
"648","Novazzano-Brusata2","pica",8.9643073,45.8451093,"Via Cios","6883"
"649","Novazzano-Paese","pica",8.981303,45.8395427,"Via Marcetto","6883"
"650","Noville","m",6.9209862,46.388792,"Route du Simplon","1845"
"651","Noville","mgls",6.9204954,46.3864173,"Route du Simplon24","1845"
"652","Nussbaumen - Markthof","m",8.2925534,47.487854,"Hertensteinstrasse","5415"
"653","Nyon","soca",6.2167268,46.3824876,"Impasse de Champ-Colin 12","1260"
"654","Nyon - La Combe","mmm",6.2348109,46.3827028,"Rue de la Morâche 6","1260"
"655","Nyon - Porte de Nyon","fm",6.2211689,46.38904,"chemin de la Fontaine 1","1260"
"656","Näfels","m",9.05966,47.0936714,"Oberdorf 44","8752"
"657","Oberburg","mgls",7.6326438,47.0324969,"Emmentalstrasse 166","3414"
"658","Oberengstringen","m",8.462976,47.4086394,"Im Zentrum 2","8102"
"659","Oberglatt","mig",8.5106565,47.4702272,"Kaiserstuhlstrasse 25","8154"
"660","Oberglatt","soca",8.5051151,47.4763679,"Kaiserstuhlstrasse 51","8154"
"661","Obermeilen","soca",8.652638,47.2654485,"Seestrasse 801","8706"
"662","Oberrieden","mig",8.5776055,47.2766939,"Alte Landstrasse 37","8942"
"663","Oberriet","m",9.5634422,47.3158345,"Staatsstrasse 56","9463"
"664","Oberwil","mmm",7.5546791,47.5099303,"Mühlemattstrasse 18","4104"
"665","Oensingen","m",7.718937,47.2889751,"Mühlefeldstrasse 53","4702"
"666","Oftringen","mm",7.9213265,47.3125554,"Zürichstrasse 2","4665"
"667","Oftringen","shell",7.9308863,47.3051574,"Campingweg 11","4665"
"668","Oftringen","soca",7.9359853,47.29749,"Aeussere Luzernerstrasse 17","4665"
"669","Oftringen - MParc","fm",7.9276772,47.308499,"Ackerweg 2","4665"
"670","Olten - Aarburgerstr.","mgls",7.9075153,47.3452266,"Aarburgerstr. 115","4600"
"671","Olten - Hammer","mm",7.8987827,47.3499928,"Solothurnerstrasse 21","4600"
"672","Olten - Sälipark","mm",7.9097192,47.346678,"Louis Giroud-Strasse 20","4600"
"673","Olten - Sälipark Fachmärkte","fm",7.9103665,47.3465494,"Louis Giroud-Strasse 25","4600"
"674","Olten - Tannwaldstrasse","mig",7.9086432,47.3515901,"Tannwaldstrasse 48","4600"
"675","Onex","shell",6.0977005,46.1822931,"Rte de Chancy 142","1213"
"676","Onex","soca",6.1035615,46.1846747,"Route de Chancy 113","1213"
"677","Opfikon","soca",8.5637435,47.4161074,"Hagenholzstrasse 119","8152"
"678","Opfikon - Glattpark","m",8.5579927,47.4212446,"Thurgauerstrasse 106","8152"
"679","Orbe","m",6.5313631,46.7237876,"Rue des Terreaux 22","1350"
"680","Oron-la-Ville","m",6.8257176,46.5719556,"Route de Lausanne 2","1610"
"681","Ostermundigen","mm",7.4959824,46.9569316,"Bernstrasse 114","3072"
"682","Othmarsingen","mgls",8.2195193,47.4070248,"Ahornweg 14","5504"
"683","Outlet Dietlikon - Greenhouse","spez",8.6191977,47.4121821,"Industriestrasse 31","8305"
"684","Outlet Eglisau","spez",8.5233301,47.5686492,"Sandgruebstrasse 1","8193"
"685","Outlet Roche","spez",6.9335161,46.3544176,"Chemin Vers le Stand","1852"
"686","Outlet Romanel","spez",6.6061476,46.5738718,"rte de Neuchâtel 10","1032"
"687","Paudex","soca",6.6733338,46.5062795,"Route du Simplon 20","1094"
"688","Payerne","mm",6.9396282,46.8201631,"Rue du Temple 19","1530"
"689","Payerne","mig",6.9397961,46.8196551,"Rue de la Gare 14","1530"
"690","Peseux","mm",6.8895441,46.9859094,"Rue Jämes-Paris 4","2034"
"691","Pfungen","m",8.6500909,47.5172846,"Weiacherstrasse 1","8422"
"692","Pfungen","fm",8.6501686,47.5186335,"Wanistrasse 2","8422"
"693","Pfäffikon - Seedammcenter","mm",8.7927006,47.2005836,"Gwattstrasse 11","8808"
"694","Pfäffikon ZH","mm",8.7812381,47.3686343,"Turmstrasse 9","8330"
"695","Pfäffikon ZH","mig",8.7848528,47.3669849,"Bahnhofstrasse 11","8330"
"696","Plaffeien","m",7.2910651,46.7397917,"Obere Matte 9","1716"
"697","Plan-les-Ouates","mm",6.1155683,46.167632,"Route de Saint-Julien 176","1228"
"698","Plan-les-Ouates","mgls",6.11076,46.1648588,"Route de Saint-Julien 185","1228"
"699","Ponte Cremennaga","pica",8.788448,45.9929238,"Via Cantonale 59","6996"
"700","Popup M-Budget gare Lausanne","spez",6.6282054,46.5164091,"Rue du Simplon 32","1006"
"701","Porrentruy","mm",7.0771359,47.4164582,"Faubourg St Germain 2","2900"
"702","Porrentruy","shell",7.0788305,47.4214043,"Rue Xavier-Stockmar 6","2900"
"703","Porte de Versoix","mm",6.1674765,46.2744374,"Chemin de l'ancien péage 1","1290"
"704","Pratteln","mm",7.6940945,47.5204545,"Burggartenstrasse 21","4133"
"705","Pratteln","mgls",7.7059835,47.5237214,"Krummeneichstrasse 39","4133"
"706","Pratteln - Bike World","spez",7.6818349,47.5245479,"Hardstrasse 59","4133"
"707","Pratteln-Gehrenacker","dmp",7.704295,47.521259,"Gehrenackerstrasse 7","4133"
"708","Pregassona","m",8.9672005,46.0236673,"Via alla Bozzoreda 39","6963"
"709","Prilly","m",6.6077373,46.5332121,"Route de Cossonay 9","1008"
"710","Prilly","soca",6.6027559,46.5274181,"Route de Renens 8","1008"
"711","Prilly - Malley","m",6.6028429,46.526852,"Chemin du Viaduc 1","1008"
"712","Prilly - ch. du Viaduc","shell",6.6028735,46.527401,"Ch. du Viaduc 1","1008"
"713","Prilly - rte de Cossonay","mgls",6.6011857,46.537932,"Rte de Cossonay 66","1008"
"714","Préverenges","m",6.5166645,46.5188722,"Chemin du Vuasset 2","1028"
"715","Puidoux","dmp",6.769391,46.4922982,"Chemin de Publoz 11","1070"
"716","Pully","mm",6.6596672,46.5116743,"Chemin du Pré-de-la-Tour 3","1009"
"717","Rain","m",8.2496975,47.1269865,"Gääli 6","6026"
"718","Ramsen","dmp",8.8206881,47.7067582,"Petersburg 416","8262"
"719","Rapperswil - Sonnenhof","mm",8.8205077,47.2290317,"Zürcherstrasse 4","8640"
"720","Rapperswil - Zentrum","m",8.818166,47.2258032,"Untere Bahnhofstrasse 19","8640"
"721","Rebstein","dmp",9.5813963,47.3971838,"Staatsstrasse 128","9445"
"722","Regensdorf","mgls",8.4744151,47.4374921,"Feldstrasse 6","8105"
"723","Regensdorf","soca",8.4735797,47.4380292,"Feldstrasse 10","8105"
"724","Regensdorf - Zentrum","mmm",8.4685613,47.4309422,"Zentrum 1","8105"
"725","Reiden","m",7.9715113,47.2484269,"Hauptstrasse 52","6260"
"726","Reiden","mig",7.9688168,47.2417922,"Bahnhofstrasse 12A","6260"
"727","Reiden Outlet","spez",7.9578136,47.247006,"Zelglimatte 3","6260"
"728","Reinach","fm",7.5963235,47.4887274,"Sternenhofstrasse 10","4153"
"729","Reinach","mgls",8.1847692,47.2591663,"Sandgasse 18","5734"
"730","Reinach - Mischeli","mm",7.5964432,47.5022541,"Niederbergstrasse 1","4153"
"731","Reinach - Zentrum","m",7.5944243,47.4926693,"Herrenweg 11","4153"
"732","Reinach AG","mm",8.1816799,47.2578265,"Sandgasse 6","5734"
"733","Reinach BL","mgls",7.5983027,47.4894532,"Kägenstrasse 1","4153"
"734","Renens","mgls",6.5852658,46.5339363,"Rue du Silo 7","1020"
"735","Renens - Florissant","m",6.5977745,46.5309348,"Avenue de Florissant 38","1020"
"736","Renens - Métropole","mm",6.580878,46.5385453,"Rue de la Mèbre 9","1020"
"737","Renens OBI","fm",6.5855766,46.5332369,"Avenue du Silo 11","1020"
"738","Renens Silo","m",6.5864409,46.5329068,"Rue du Silo 11","1020"
"739","Rheineck","m",9.5886584,47.4684353,"Rhyguetstrasse 2","9424"
"740","Rheinfall","soca",8.6233955,47.692882,"Mühlenstrasse 96","8200"
"741","Rheinfelden","mm",7.7982876,47.555335,"Lindenstrasse 3","4310"
"742","Riazzino","m",8.8883659,46.1754674,"Via Cantonale 40","6595"
"743","Richterswil","m",8.7053798,47.2063902,"Schützengass 4","8805"
"744","Riehen - Dorf","mm",7.6519616,47.5852499,"Rössligasse/Webergässchen 8","4125"
"745","Riehen - Grenzacherweg","dmp",7.6468453,47.5754561,"Grenzacherweg 81","4125"
"746","Riehen - Niederholz","dmp",7.6332176,47.569669,"Gotenstrasse 84","4125"
"747","Rolle","mm",6.3383807,46.4611,"Av. de la Gare 17","1180"
"748","Rolle","mgls",6.3350193,46.4627709,"Route de la Vallée 7","1180"
"749","Romanel-sur-Lausanne","mmm",6.6130138,46.5590513,"En Félezin","1032"
"750","Romanshorn - Hubzelg","mm",9.3674826,47.5646479,"Bahnhofstrasse 54a","8590"
"751","Romont","mm",6.9126508,46.6926707,"Avenue de la Gare 7","1680"
"752","Rorschach - Promenade","m",9.4950791,47.4740862,"Promenadenstrasse 83","9400"
"753","Rorschach - Trischliplatz","mm",9.4889596,47.4778206,"Trischlistrasse 15","9400"
"754","Rothenburg M-Electronics","fm",8.2450217,47.0946381,"Wahligenstrasse 4","6023"
"755","Rothrist","m",7.8866601,47.3066918,"Neue Aarburgstrasse 20","4852"
"756","Rothrist","mgls",7.8953841,47.3116536,"Neue Aarburgerstrasse 9","4852"
"757","Rotkreuz","m",8.4283831,47.1412778,"Buonaserstrasse 1","6343"
"758","Rotkreuz","shell",8.4345645,47.1476159,"Blegistrasse 4","6343"
"759","Ruopigen Zentrum Luzern","m",8.2740577,47.0622438,"Ruopigeplatz","6015"
"760","Ruswil","m",8.1127902,47.0884106,"Rüediswilerstrasse 79","6017"
"761","Réchy","dmp",7.4944589,46.2617504,"Place Pranniviers 8","3966"
"762","Rümlang","shell",8.5241895,47.4618798,"Riedmattstrasse 8","8153"
"763","Rümlang Hofwisencenter","m",8.537906,47.4509866,"Hofwisenstrasse 40A","8153"
"764","Rüschlikon Parkside","m",8.5488346,47.3010372,"Zürcherstrasse 4","8803"
"765","Rüti ZH","mm",8.8489703,47.2581252,"Bandwiesstrasse 6","8630"
"766","Rüti ZH Fachmarkt","fm",8.85329,47.2530884,"Werkstrasse 43","8630"
"767","SOCAR Stäfa","soca",8.7148207,47.2407708,"Seestrasse 1+3","8712"
"768","Saas Fee","m",7.9281535,46.1085428,"Hôtel du Glacier","3906"
"769","Saignelégier","m",6.9998167,47.254553,"Rue de la Gruère 23","2350"
"770","Sainte-Croix","m",6.5032791,46.819495,"Rue de l'Industrie 21","1450"
"771","Samedan","mig",9.8725017,46.5310064,"Cho d'Punt 10","7503"
"772","San Bernardino","soca",9.1875987,46.4674155,"Strada del Passo","6565"
"773","Sant' Antonino","mgls",8.9625176,46.1548802,"Centro Commerciale","6592"
"774","Sargans","mig",9.4450266,47.0456746,"Bahnhofpark 1","7320"
"775","Sarnen - Sarnen-Center","mm",8.2496712,46.8970349,"Nelkenstrasse 5","6060"
"776","Savièse","m",7.3519659,46.2502976,"Centre Commercial du Stade","1965"
"777","Schaan","m",9.5037209,47.1692926,"Im Rösle 2","9494"
"778","Schaffhausen","mta",8.6329323,47.6972995,"Schwertstrasse 4","8200"
"779","Schaffhausen - Breite","m",8.6200072,47.7064686,"Hohlenbaumstrasse 79","8200"
"780","Schaffhausen - Buchthalen","m",8.6542202,47.6992534,"Dürstlingweg 2","8203"
"781","Schaffhausen - Grubenstrasse","soca",8.6453389,47.7029976,"Grubenstrasse 80","8200"
"782","Schaffhausen - Herblinger-Markt","mmm",8.6639731,47.7202715,"Stüdliackerstrasse 4","8207"
"783","Schaffhausen - Vorstadt","mm",8.6339358,47.6987731,"Bahnhofstrasse 56/58","8200"
"784","Schindellegi","m",8.7133184,47.1756607,"Pfäffikonerstrasse 19","8834"
"785","Schlieren","mig",8.4474972,47.3986921,"Güterstrasse 3","8952"
"786","Schlieren","soca",8.4403664,47.3963885,"Badenerstrasse 41","8952"
"787","Schlieren - Kesslerplatz","m",8.4371696,47.3961553,"Badenerstrasse 57","8952"
"788","Schlieren - Rietbach","mm",8.4352362,47.400753,"Rietbachstrasse 14","8952"
"789","Schlieren - Zentrum","m",8.4468471,47.3986438,"Güterstrasse 5","8952"
"790","Schmerikon - Bahnhofstrasse","mig",8.9432488,47.2252089,"Bahnhofstrasse 2","8716"
"791","Schmerikon - St.Gallerstrasse","mgls",8.9619698,47.2301268,"St. Gallerstrasse 75a","8716"
"792","Schwarzenburg","m",7.339902,46.8177012,"Freiburgstrasse 5b","3150"
"793","Schwerzenbach","mig",8.6587636,47.3843854,"Bahnstrasse 7a","8603"
"794","Schöftland","m",8.0474765,47.3027032,"Picardiestrasse 3","5040"
"795","Schönbühl - Moosbühl","fm",7.4905873,47.0158434,"Gewerbestrasse 11","3302"
"796","Schönbühl - Shoppyland","mmm",7.4922895,47.0169667,"Industriestrasse 10","3321"
"797","Schönenwerd","m",8.0031216,47.3735275,"C.F. Ballystrasse 14","5012"
"798","Schüpfen","mig",7.3860303,47.0419018,"Bernstrasse 10","3054"
"799","Schüpfheim","m",8.0165859,46.9482657,"Vormüli 1","6170"
"800","Sembrancher","m",7.1446967,46.0791549,"Rue de la Chapalette 1","1933"
"801","Sementina","m",8.9920373,46.1822199,"via al Ticino 28","6514"
"802","Sempach Station","m",8.1993284,47.1169163,"Mettenwilstrasse 11","6203"
"803","Seon","m",8.1612469,47.3477982,"Unterdorfstrasse 21","5703"
"804","Seuzach","m",8.7303174,47.5355288,"Winterthurerstrasse 5","8472"
"805","Shell Meyrin-Parc","shell",6.0848783,46.2305986,"Avenue de Mategnin 45","1217"
"806","Shell Relais du St.Bernard","shell",7.0605196,46.1264947,"Relais du St-Bernard A9","1920"
"807","Siebnen","mgls",8.9076441,47.1761348,"Glarnerstrasse 77","8854"
"808","Sierre","mm",7.5291519,46.292358,"Avenue Général Guisan","3960"
"809","Sierre Rossfeld","fm",7.5133829,46.2814938,"Rte des Lacustres","3960"
"810","Sihlbrugg AMAG","mgls",8.5765731,47.2173651,"Zugerstrasse 2","6340"
"811","Sins","mgls",8.3973587,47.1852946,"Eichfeld 1","5643"
"812","Sion","mgls",7.3452206,46.2290537,"Route de Lausanne 100","1950"
"813","Sion - Le Ritz","m",7.3595336,46.2358562,"Avenue Ritz 31","1950"
"814","Sion - Métropole","mmm",7.356213,46.2286124,"Avenue de France 14-20","1950"
"815","Sion - Tourbillon Center","m",7.3843456,46.2314201,"Avenue Grand-Champsec 30","1950"
"816","Sion Outlet","spez",7.3785208,46.2281227,"Rue du Manège 2","1950"
"817","Sirnach","m",8.9916638,47.4634678,"Winterthurerstrasse 27","8370"
"818","Sissach","mm",7.816352,47.462086,"Hauptstrasse 17","4450"
"819","Solothurn","m",7.533167,47.2068855,"Wengistrasse 13","4500"
"820","Solothurn","shell",7.5238037,47.2114448,"Bielstrasse 89","4500"
"821","Solothurn Baselstrasse","m",7.5446377,47.2112133,"Baselstrasse 30/32","4500"
"822","Spiez - Terminus","mm",7.6817159,46.6857824,"Bahnhofstrasse","3700"
"823","Spreitenbach","mm",8.3676836,47.4218343,"Shopping-Center","8957"
"824","Spreitenbach - Tivoli","mmm",8.3700585,47.4233238,"Shoppi Tivoli","8957"
"825","Spreitenbach Do It + Garden","spez",8.3708882,47.4245244,"Pfadackerstrasse 6","8957"
"826","St-Imier","m",6.9952813,47.1515265,"Rue Baptiste-Savoye 62","2610"
"827","St-Maurice","m",7.0052498,46.2147953,"Av. du Simplon 15","1890"
"828","St. Gallen - Bruggen","m",9.3354232,47.4100595,"Fürstenlandstrasse 157","9014"
"829","St. Gallen - Lachen","m",9.3546546,47.420555,"Ullmenstrasse 11","9000"
"830","St. Gallen - Langgasse","m",9.3862519,47.4352582,"Langgasse 20","9008"
"831","St. Gallen - Neudorf","m",9.4050204,47.4372078,"Rorschacherstrasse 249","9016"
"832","St. Gallen - Neumarkt","mmm",9.3705537,47.4221431,"St. Leonhardstrasse 35","9000"
"833","St. Gallen - Rorschacherstr.","mgls",9.4020661,47.4351257,"Rorschacherstrasse 219","9000"
"834","St. Gallen - Silberturm","m",9.3950643,47.4311418,"Rorschacherstrasse 150","9006"
"835","St. Gallen - Spisermarkt","m",9.3782359,47.4252078,"Brühlgasse 28","9000"
"836","St. Gallen - St. Fiden","mm",9.391591,47.4358241,"Bachstrasse 29","9008"
"837","St. Gallen - Union","mig",9.3745396,47.4256387,"Oberer Graben 3","9000"
"838","St. Gallen - Zürcherstr. 205","shell",9.3360605,47.4117293,"Zürcherstrasse 205","9014"
"839","St. Gallen - Zürcherstrasse 114","mgls",9.3452081,47.4162391,"Zürcherstrasse 114","9000"
"840","St. Gallen Bahnhof","mr",9.3695057,47.4230367,"Bahnhofplatz 2","9000"
"841","St. Gallen OBI / Micasa","fm",9.3123033,47.4149328,"Gaiserwaldstrasse 3","9015"
"842","St. Katharina Nord","soca",8.3744025,47.1194294,"Autobahn A 14 Nord","6034"
"843","St. Katharina Süd","soca",8.3749711,47.1187123,"Autobahn A14 Süd","6034"
"844","St. Margrethen - Bahnhofplatz","mig",9.6380266,47.4531921,"Bahnhofplatz 1","9430"
"845","St. Margrethen - Grenzstrasse","mgls",9.6382129,47.4551321,"Grenzstrasse 31","9430"
"846","St. Margrethen - Rheinpark","mmm",9.651415,47.4500845,"Einkaufszentrum","9430"
"847","St. Moritz","mig",9.845483,46.497821,"Plazza da la Staziun","7500"
"848","St. Niklaus","dmp",7.8064848,46.1810239,"Eyastrasse 1","3924"
"849","St.Gallen Outdoor","spez",9.3733977,47.4230672,"Vadianstrasse 7","9000"
"850","Stabio","m",8.9364332,45.8485669,"Via Giulia 43","6855"
"851","Stabio Gaggiolo","pica",8.9223671,45.8441314,"Via Gaggiolo","6855"
"852","Stabio-Gaggiolo 1","pica",8.919321,45.8424959,"Via Gaggiolo 45","6855"
"853","Stabio-Paese","pica",8.9270699,45.8448496,"Via Gaggiolo 33","6855"
"854","Stalden","dmp",7.8708057,46.2326654,"Zum Marktplatz","3922"
"855","Stalden","mgls",7.8768003,46.2470999,"Talstrasse","3922"
"856","Stans","mgls",8.3529125,46.9663706,"Rotzlochstrasse 1","6370"
"857","Stans - Länderpark","mmm",8.3556565,46.9646845,"Bitzistrasse 2","6370"
"858","Steckborn","m",8.9758158,47.6639509,"Im Feldbach 1b","8266"
"859","Steffisburg","m",7.6335904,46.7810832,"Oberdorfstrasse 33","3612"
"860","Steffisburg","mgls",7.6245157,46.76586,"Bernstrasse 39","3613"
"861","Steg","m",7.7453717,46.3147018,"Bahnhofstrasse","3940"
"862","Steg","mgls",7.750871,46.3062985,"Kantonsstrasse 30","3940"
"863","Stein","m",7.9544805,47.5492231,"Schaffhauserstrasse 61","4332"
"864","Stein","shell",7.9535086,47.5476265,"Schaffhauserstrasse 46","4332"
"865","Stein am Rhein","m",8.8526236,47.6514436,"Kaltenbacherstrasse 41","8260"
"866","Steinhausen - Zugerland","mmm",8.4778276,47.1918107,"Hinterbergstrasse 40","6312"
"867","Steinhausen Dorf","m",8.4847518,47.197107,"Bahnhofstrasse 2","6312"
"868","Stäfa","mm",8.7234301,47.2406714,"Goethestrasse 18","8712"
"869","Sugiez","mgls",7.1238781,46.9665241,"Route du Péage 31a","1786"
"870","Suhr","mig",8.0821995,47.3717739,"Bahnhofstrasse 1","5034"
"871","Suhr Outlet","spez",8.0811156,47.3697291,"Hintere Bahnhofstrasse 3","5034"
"872","Suhr Suhrepark","m",8.0816706,47.3732376,"Bernstrasse Ost 52","5034"
"873","Sulgen - Passerelle","m",9.1829867,47.5401419,"Hauptstrasse 3","8583"
"874","Sursee","mgls",8.1000927,47.1736868,"Zeughausstrasse 38","6210"
"875","Surseepark","mmm",8.1021962,47.1728531,"Bahnhofstrasse 28","6210"
"876","Surseepark Fachmarkt","fm",8.1011326,47.1724395,"Bahnhofstrasse 30","6210"
"877","Susten","dmp",7.6407791,46.3114821,"Sustenstrasse 5","3952"
"878","Taesch","dmp",7.77679,46.0709528,"Neue Kantonstrasse","3929"
"879","Tavannes","m",7.1978861,47.21932,"Rue de Pierre-Pertuis 11","2710"
"880","Taverne","m",8.9315827,46.060572,"Via Cantonale","6807"
"881","Taverne","fm",8.9304134,46.0593998,"Via Brüsighell 6","6807"
"882","Tenero","m",8.8517014,46.1795605,"Via al Giardino","6598"
"883","Tesserete","m",8.9669567,46.0675557,"Via Luigi Canonica 40","6950"
"884","Teufen","m",9.3908514,47.3907355,"Speicherstrasse 8","9053"
"885","Thal","m",9.5771551,47.4795373,"Wiesentalstrasse 4","9425"
"886","Thalwil","mm",8.5640824,47.2941879,"Alte Landstrasse 130","8800"
"887","Thayngen","m",8.7067801,47.7488083,"Biberstrasse 30","8240"
"888","Thayngen","mgls",8.7147398,47.7404286,"Grenzstrasse 72","8240"
"889","Therwil","shell",7.5643512,47.4966992,"Reinacherstrasse 49A","4106"
"890","Thierrens","dmp",6.7550064,46.7044032,"Rue du Collège 6","1410"
"891","Thoiry (F)","mmm",5.9941326,46.2286354,"CC Val Thoiry","01710"
"892","Thun","shell",7.6275516,46.7542958,"Frutigenstrasse 18","3600"
"893","Thun - Bälliz","mm",7.6266358,46.7601164,"Bälliz 2","3600"
"894","Thun - Dürrenast","m",7.6261582,46.7450418,"Frutigenstrasse 60","3604"
"895","Thun - Oberland","mmm",7.614778,46.7447598,"Talackerstrasse 62","3604"
"896","Thun - Panorama Center","fm",7.6053619,46.7441475,"Weststrasse 14","3604"
"897","Thun - Weststrasse","mgls",7.6076245,46.7449484,"Weststrasse 10","3600"
"898","Thusis - im Park","mm",9.4398532,46.6944915,"Im Park","7430"
"899","Thônex","mm",6.19969,46.193039,"Rue de Genève 92","1226"
"900","Thônex","shell",6.2128684,46.1986526,"Route d'Ambilly 3","1226"
"901","Tramelan","m",7.0997558,47.2234176,"Rue Albert-Gobat 1","2720"
"902","Trübbach","mgls",9.4862183,47.0750277,"Staatsstrasse 10","9477"
"903","Turbenthal","m",8.8445994,47.4385237,"Tösstalstrasse 54","8488"
"904","Tägerwilen","m",9.1419927,47.6538552,"Hauptstrasse 117","8274"
"905","Uetendorf","m",7.5741096,46.7739279,"Dorfstrasse 21","3661"
"906","Uetikon am See","mig",8.6788686,47.2591331,"Alte Landstrasse 144","8707"
"907","Uitikon-Waldegg","m",8.4616665,47.3687168,"Zürcherstrasse 8","8142"
"908","Unterentfelden","mm",8.0456204,47.3619645,"Binzmattweg 8","5035"
"909","Unterägeri","m",8.5797157,47.1378879,"Zugerstrasse 32","6314"
"910","Urdorf - Spitzacker","m",8.4223769,47.3848945,"Birmensdorferstrasse 87","8902"
"911","Uster","shell",8.7226744,47.3521726,"Feldhofstrasse 2","8610"
"912","Uster - Illuster","mmm",8.7152446,47.349891,"Zürichstrasse 20","8610"
"913","Uster-West","fm",8.7138115,47.3540699,"Winterthurerstrasse 18","8610"
"914","Utzenstorf - Linde","m",7.5585845,47.1284908,"Hauptstrasse 29","3427"
"915","Uznach - Frohsinn","mm",8.9806843,47.2264591,"Zürcherstrasse 25","8730"
"916","Uzwil - Steinacker","mm",9.1329166,47.4380867,"Neudorfstrasse 2","9240"
"917","VOI Aarburg","voi",7.9071351,47.320554,"Bahnhofstrasse 59","4663"
"918","VOI Aarwangen","voi",7.7718237,47.2362174,"Langenthalstrasse 44","4912"
"919","VOI Alpnach","voi",8.2709654,46.9398339,"Brünigstrasse 29","6055"
"920","VOI Baden - Mellingerstrasse","voi",8.2932847,47.4673446,"Mellingerstrasse 142","5400"
"921","VOI Bern - Fellergut","voi",7.3902179,46.9453512,"Mühledorfstrasse 15","3018"
"922","VOI Bern - Fischermätteli","voi",7.4185558,46.9413645,"Könizstrasse 60","3008"
"923","VOI Bern - Kramgasse","voi",7.4497459,46.9481109,"Kramgasse 54","3011"
"924","VOI Bern - Schosshalde","voi",7.4629318,46.9453775,"Schossshaldenstrasse 16","3006"
"925","VOI Bern - Spiegel","voi",7.433499,46.9264088,"Chasseralstrasse 156","3095"
"926","VOI Bern - Viktoriastrasse","voi",7.4545541,46.9536364,"Viktoriastrasse 49","3013"
"927","VOI Beromünster","voi",8.1917754,47.209729,"Aargauerstrasse 16","6215"
"928","VOI Bettlach","voi",7.426077,47.1993568,"Dorfstrasse 12","2544"
"929","VOI Biel - Jardin du Paradis","voi",7.2632867,47.1454026,"Jakob-Stämpflistrasse 112","2502"
"930","VOI Biel - Mett","voi",7.2721353,47.1426268,"Schollstrasse 2","2504"
"931","VOI Boll","voi",7.5479454,46.9546925,"Kernstrasse 9","3067"
"932","VOI Brügg","voi",7.2804096,47.1239464,"Hauptstrasse 17","2555"
"933","VOI Buchs ZH","voi",8.4396784,47.4563902,"Meierwiesenstrasse 20","8107"
"934","VOI Büron","voi",8.0944046,47.2136699,"Sagipark 7","6233"
"935","VOI Dulliken","voi",7.9345418,47.354143,"Grundstrasse 1","4657"
"936","VOI Genève-Cirque","voi",6.1397642,46.2010565,"Place du Cirque 2","1204"
"937","VOI Geroldswil","voi",8.4117228,47.4215795,"Huebwiesenstrasse 26b","8954"
"938","VOI Grindelwald","voi",8.0391045,46.6236074,"Dorfstrasse 155","3818"
"939","VOI Horgen","voi",8.6119618,47.2548701,"Seestrasse 288","8810"
"940","VOI Ins","voi",7.1070561,47.0042581,"Moosgasse 7","3232"
"941","VOI Jegenstorf","voi",7.5103611,47.051416,"Solothurnstrasse 24","3303"
"942","VOI Lengnau","voi",7.3631011,47.1808069,"Bielstrasse 35","2543"
"943","VOI Meyrin - Les Vergers","voi",6.0668592,46.2309568,"3, place de la Diversité","1217"
"944","VOI Niederbipp","voi",7.6926322,47.2698326,"Wydenstrasse 9","4704"
"945","VOI Niedergösgen","voi",7.9936894,47.3717743,"Aarestrasse 49","5013"
"946","VOI Niederlenz","voi",8.1777989,47.3990619,"Lenzburgerstrasse 2","5702"
"947","VOI Roggwil","voi",7.8218895,47.2393252,"Dorfstrasse 19","4914"
"948","VOI Rombach","voi",8.0448105,47.401845,"Bibersteinstrasse 4","5022"
"949","VOI Rümlang","voi",8.5315694,47.4497963,"Lindenstrasse 16","8153"
"950","VOI Safenwil","voi",7.9851441,47.321305,"Güterstrasse 1A","5745"
"951","VOI Schwerzenbach","voi",8.6589504,47.3851497,"Bahnstrasse 14","8603"
"952","VOI Seengen","voi",8.2036078,47.3249241,"Unterdorfstrasse 7a","5707"
"953","VOI Sempach Stadt","voi",8.1920443,47.1362307,"Oberstadt 6","6204"
"954","VOI Siebnen","voi",8.9004331,47.1753754,"Glarnerstrasse 36","8854"
"955","VOI Stans","voi",8.366329,46.9565347,"Marktgasse 2","6370"
"956","VOI Steffisburg","voi",7.6161447,46.773617,"Bahnhofstrasse 87","3613"
"957","VOI Strengelbach","voi",7.9286,47.2784744,"Langenthalerstrasse 1","4802"
"958","VOI Studen","voi",7.3011494,47.1142052,"Hauptstrasse 65","2557"
"959","VOI Sumiswald","voi",7.7463868,47.0288821,"Spitalstrasse 10","3454"
"960","VOI Trimbach","voi",7.8988859,47.3623369,"Chäppeligasse 5","4632"
"961","VOI Unterkulm","voi",8.1136257,47.3107455,"Böhlerstrasse 2","5726"
"962","VOI Wabern","voi",7.4523149,46.9286391,"Seftigenstrasse 259","3084"
"963","VOI Wangen a. Aare","voi",7.6554199,47.23393,"Vorstadt 14","3380"
"964","VOI Wichtrach","dmp",7.5753497,46.850993,"Dorfplatz 1","3114"
"965","VOI Wilderswil","voi",7.8690846,46.6660645,"Hauptstrasse 27","3812"
"966","VOI Wollerau","voi",8.7226776,47.1964428,"Wächlenstrasse 1","8832"
"967","VOI Zürich - Grünau","voi",8.4863988,47.3963402,"Grünauring 37","8064"
"968","VOI Zürich - Hönggerstrasse","voi",8.5184213,47.3952404,"Hönggerstrasse 117","8037"
"969","VOI Zürich - In der Ey","voi",8.4928295,47.3705108,"Letzigraben 239","8047"
"970","VOI Zürich - Leimbach","voi",8.5153194,47.3297396,"Ankenweid 10","8041"
"971","VOI Zürich - Paradies","voi",8.5294762,47.3347241,"Paradiesstrasse 3","8038"
"972","VOI Zürich - Witikon","voi",8.5939597,47.3599907,"Loorenstrasse 35","8053"
"973","Vacallo-Pizzamigli","pica",9.0372212,45.8432895,"Via del Breggia 13","6833"
"974","Vallorbe","m",6.3777456,46.7117213,"Grand-Rue 23","1337"
"975","Verbano","shell",8.8175123,46.1749324,"Via Rinaldo Simen","6648"
"976","Verbier","m",7.2232795,46.0966164,"Les Arcades","1936"
"977","Vernier - Arcenter","m",6.0812106,46.2151057,"Route de Peney 2-4","1214"
"978","Vernier Outlet","spez",6.0869554,46.2170639,"Route de Vernier 184","1214"
"979","Versoix","mig",6.1658024,46.2797694,"Chemin Jean-Baptiste Vandelle 1","1290"
"980","Vevey - Midi Coindet","mm",6.8401817,46.4636235,"Av. Gustave Coindet 11","1800"
"981","Vevey Des 2 Gares","m",6.8421961,46.464429,"Rue des Moulins 5 b","1800"
"982","Vezia","pica",8.9366277,46.0212226,"Via S. Gottardo 5b","6943"
"983","Villars-Ste-Croix","mgls",6.5589149,46.5663916,"Route de Cossonay 3","1029"
"984","Villars-s/Glâne - Cormanon","m",7.1335773,46.7937778,"Rue du centre 4","1752"
"985","Villars-sur-Glâne","mgls",7.1228992,46.7988222,"rte de Moncor 8","1752"
"986","Villars-sur-Ollon","dmp",7.0441609,46.3012515,"Rue Centrale 99","1884"
"987","Vionnaz","dmp",6.8985242,46.3135922,"Route du Léman 33","1895"
"988","Visp","mm",7.8798626,46.2929559,"Brückenweg 10","3930"
"989","Volketswil","mm",8.6805761,47.3884116,"Im Zentrum 18","8604"
"990","Volketswil","mgls",8.6740561,47.3807417,"Industriestrasse 20a","8604"
"991","Volketswil - Bike World","spez",8.6777467,47.3799138,"Industriestrasse 22","8604"
"992","Volketswil Fachmärkte","fm",8.6752451,47.3800454,"Industriestrasse 20","8604"
"993","Volketswil Provisorium","m",8.6806351,47.3884578,"Im Zentrum 18","8604"
"994","Vétroz","dmp",7.259816,46.2154523,"Rue de la Lizerne 7","1963"
"995","Wabern","mgls",7.4580293,46.9235631,"Seftigenstrasse 350","3084"
"996","Wabern - Chly Wabere","mm",7.4597094,46.9225103,"Seftigenstrasse 368","3084"
"997","Wald","shell",8.9118624,47.2737533,"Rütistrasse 29","8636"
"998","Wald ZH","m",8.9147079,47.2748553,"Bahnhofstrasse 20","8636"
"999","Walenstadt","m",9.3135977,47.1219487,"Bahnhofstrasse 27","8880"
"1000","Walke","m",9.2977832,47.392741,"Walke 39","9100"
"1001","Wallisellen","m",8.5916082,47.4134998,"Bahnhofstrasse 30","8304"
"1002","Wallisellen - Glattzentrum","mmm",8.5960556,47.4084534,"Neue Winterthurerstrasse 99","8304"
"1003","Wallisellen - Husacherstr.","mgls",8.6019195,47.4081074,"Husacherstrasse 2","8304"
"1004","Wattwil","mm",9.0881625,47.2984452,"Bahnhofstrasse 19","9630"
"1005","Weggis","dmp",8.4262019,47.0337353,"Luzernerstrasse 44","6353"
"1006","Weinfelden","mgls",9.1047495,47.562973,"Dufourstrasse 14","8570"
"1007","Weinfelden - Rösslifelsen","mm",9.1110836,47.5674427,"Amriswilerstrasse 12","8570"
"1008","Weinfelden Weststrasse","m",9.094288,47.56718,"Weststrasse 27/29","8570"
"1009","Wettingen","mig",8.3148527,47.4607588,"Güterstrasse 8","5430"
"1010","Wettingen - Landstrasse","mm",8.3247051,47.4671228,"Landstrasse 69","5430"
"1011","Wetzikon - Züri-Oberland-Märt","mmm",8.7996977,47.3276616,"Bahnhofstrasse 151","8620"
"1012","Wetzikon-Kempten","mig",8.8055078,47.3328932,"Mühlenbühlstrasse 3","8623"
"1013","Widnau - Rhydorf-Center","mm",9.6288579,47.4077549,"Bahnhofstrasse 2","9443"
"1014","Wil - Toggenburgerstr.","mgls",9.0490099,47.4555682,"Toggenburgerstrasse 129","9500"
"1015","Wil - Zürcherstrasse","soca",9.040829,47.4644708,"Zürcherstrasse 7","9500"
"1016","Wil Larag","fm",9.0467972,47.4560847,"Churfirstenstrasse 54","9501"
"1017","Wil SG","mm",9.0423748,47.4628222,"Obere Bahnhofstrasse 5","9500"
"1018","Wildegg","m",8.1663545,47.4164275,"Bruggerstrasse 11 c","5103"
"1019","Wilderswil","mgls",7.8698481,46.6683954,"Gsteigstrasse 6","3812"
"1020","Willisau - Chrüzhof","m",7.9941804,47.122768,"Ettiswilerstrasse 14","6130"
"1021","Windisch","m",8.2125524,47.4750596,"Bachmattstrasse 35","5210"
"1022","Windisch","mgls",8.2125241,47.4823667,"Zürcherstrasse 3","5210"
"1023","Winterthur","mgls",8.68038,47.5157999,"Wülflingerstrasse 393","8408"
"1024","Winterthur - Bike World","spez",8.7211386,47.4984656,"Zürcherstrasse 1+3","8400"
"1025","Winterthur - Blumenau","m",8.711992,47.5068665,"Wülflingerstrasse 71","8400"
"1026","Winterthur - Deutweg","m",8.7402503,47.4947417,"Pflanzschulstrasse 9","8400"
"1027","Winterthur - Grüzepark I","fm",8.7618234,47.4976366,"Industriestrasse 44","8404"
"1028","Winterthur - Grüzepark II","fm",8.7616791,47.4982409,"Industriestrasse 43","8404"
"1029","Winterthur - Hegi","m",8.7721562,47.5042465,"Hintermühlenstrasse 4","8409"
"1030","Winterthur - Neuwiesen","mmm",8.720993,47.4991427,"Strickerstrasse 3","8400"
"1031","Winterthur - Obertor","m",8.7317613,47.5003636,"Stadthausstrasse 31","8400"
"1032","Winterthur - Oberwinterthur","mm",8.7587494,47.5112274,"Guggenbühlstrasse 1","8404"
"1033","Winterthur - Oberwinterthur","mig",8.7606407,47.5082644,"Frauenfelderstrasse 23","8404"
"1034","Winterthur - Rosenberg","mm",8.7198648,47.5183138,"Schaffhauserstrasse 152","8400"
"1035","Winterthur - Rosenberg","shell",8.7199374,47.5187243,"Schaffhauserstrasse 152","8400"
"1036","Winterthur - Seen","mm",8.7623465,47.485586,"Hinterdorfstrasse 40","8405"
"1037","Winterthur - Töss","m",8.7064972,47.491878,"Zürcherstrasse 102","8406"
"1038","Winterthur - Wülflingen","m",8.6937262,47.5108438,"Lindenplatz 1","8408"
"1039","Winterthur - Zürcherstrasse 48","mgls",8.7126522,47.4956333,"Zürcherstrasse 48","8406"
"1040","Winterthur Bahnhof","mig",8.7247052,47.501194,"Bahnhofplatz 15/17","8400"
"1041","Winterthur In der Au","mgls",8.7049215,47.4847801,"In der Au 2","8406"
"1042","Winterthur-Seen","soca",8.7550989,47.4871078,"Tösstalstrasse 205","8405"
"1043","Wittenbach","m",9.3792487,47.4620188,"Romanshorner Strasse 80-86","9300"
"1044","Wittenbach","mgls",9.3998277,47.4542732,"St. Gallerstrasse 47","9300"
"1045","Wohlen","mm",8.2724163,47.3493209,"Bahnhofstrasse 7","5610"
"1046","Wolhusen - Dorfmärt","mm",8.0705934,47.0560514,"Entlebucherstr. 36","6110"
"1047","Wollerau Märt Roospark","m",8.7214742,47.1920378,"Roosstrasse 23","8832"
"1048","Wollerau-Fuchsberg","mig",8.7519434,47.1963778,"Autobahnraststätte A3 Fuchsberg","8832"
"1049","Worb","mm",7.5649883,46.9266974,"Richigenstrasse 1","3076"
"1050","Wädenswil","mmm",8.6675403,47.2290738,"Oberdorfstrasse 27-31","8820"
"1051","Wädenswil - Seestrasse","soca",8.6604111,47.2378305,"Seestrasse 198","8820"
"1052","Wädenswil A3","shell",8.661054,47.2208937,"A3 Herrlisberg","8820"
"1053","Wädenswil Zürisee Center","fm",8.6366175,47.2352197,"Rütistrasse 1","8820"
"1054","Würenlos","shell",8.3478307,47.4387272,"Autobahntankstelle A1 / Wald","5436"
"1055","Würenlos","shell",8.3470673,47.4382745,"Autobahntankstelle A1/ Limmat","5436"
"1056","Würenlos - Autobahnraststätte","m",8.3477882,47.4385656,"Shopping - Brücke A1","5436"
"1057","Yverdon","shell",6.6494873,46.7647855,"route de Lausanne 20","1400"
"1058","Yverdon - Métropole","mmm",6.6357622,46.7812351,"Rue de Neuchâtel 3","1400"
"1059","Yverdon Sud","m",6.6501591,46.7665642,"Rue de Lausanne 10","1400"
"1060","Yvonand","dmp",6.743063,46.7996515,"Rue des Vergers","1462"
"1061","Zell","m",7.9282486,47.1371898,"Zelgmatte 2","6144"
"1062","Zermatt","mm",7.7481512,46.0217113,"Hofmattstrasse 12","3920"
"1063","Zofingen","mm",7.9421429,47.2914999,"Aarburgerstrasse 5","4800"
"1064","Zollikofen","m",7.4570099,46.9933993,"Bernstrasse 103","3052"
"1065","Zollikofen","soca",7.4629968,47.0042506,"Bernstrasse 222","3052"
"1066","Zollikon - Dorf","m",8.5760777,47.3377789,"Rotfluhstrasse 100","8702"
"1067","Zollweiden","dmp",7.6178528,47.5224322,"Baselstrasse 71","4142"
"1068","Zuchwil","m",7.5600061,47.2033261,"Hauptstrasse 60-62","4528"
"1069","Zuchwil","shell",7.5507454,47.2054043,"Luzernstrasse 4","4528"
"1070","Zug","mgls",8.4840329,47.1825071,"Chollerstrasse 1","6300"
"1071","Zug - Grabenstrasse","m",8.5151671,47.1652634,"Grabenstrasse 5","6300"
"1072","Zug - Metalli","mm",8.5170162,47.1732432,"Baarerstrasse 22","6300"
"1073","Zug Herti","m",8.505821,47.1780404,"Hertizentrum 10","6300"
"1074","Zumikon","m",8.6193207,47.3364667,"Dorfstrasse 17","8126"
"1075","Zuzwil","m",9.1124966,47.47228,"Herbergstrasse 17","9524"
"1076","Zuzwil","mgls",9.1074379,47.4688349,"St. Gallerstrasse 22","9524"
"1077","Zweisimmen","mm",7.3712741,46.5539847,"Saanenstrasse","3770"
"1078","Zwingen","mgls",7.5379942,47.4391541,"Reckholdstrasse 2","4222"
"1079","Zürich - Affoltern","mm",8.5082588,47.4202196,"Jonas-Furrer-Strasse 21","8046"
"1080","Zürich - Affoltern","mig",8.5075744,47.4211165,"S-Bahn Riedenhaldenstrasse","8046"
"1081","Zürich - Airport","mm",8.5626585,47.4502749,"Flughafen Zürich AG","8058"
"1082","Zürich - Albisriederplatz","m",8.5086822,47.3792702,"Badenerstrasse 376","8004"
"1083","Zürich - Albisriederstrasse","voi",8.493271,47.3780898,"Albisriederstrasse 253","8047"
"1084","Zürich - Altstetten M-Express","m",8.4874695,47.3915091,"Hohlstrasse 600","8048"
"1085","Zürich - Altstetten Neumarkt","mmm",8.4875256,47.3882886,"Altstetterstrasse 145","8048"
"1086","Zürich - Bahnhof Enge","m",8.5310653,47.3638859,"Tessinerplatz 10","8002"
"1087","Zürich - Birmensdorferstr.","mgls",8.4942763,47.3673493,"Birmensdorferstrasse 517","8055"
"1088","Zürich - Blumen Bellaria","spez",8.5285264,47.3471878,"Mutschellenstrasse 137","8038"
"1089","Zürich - Brunaupark","mm",8.5180694,47.3582422,"Giesshübelstrasse 65","8045"
"1090","Zürich - Burgwies","m",8.5715375,47.3576581,"Forchstrasse 260","8008"
"1091","Zürich - City","mmm",8.5365345,47.3754488,"Löwenstrasse 31-35","8001"
"1092","Zürich - Flurstr.","mgls",8.492102,47.3812756,"Flurstrasse 95","8047"
"1093","Zürich - Furttal","shell",8.5026175,47.4211082,"Wehntalerstrasse 586c","8046"
"1094","Zürich - HB Sihlquai","m",8.5357604,47.3785227,"Sihlpassage","8004"
"1095","Zürich - Hardau","shell",8.5100871,47.3813081,"Bullingerstrasse 73","8004"
"1096","Zürich - Hauptbahnhof","m",8.5405815,47.3783386,"Hauptbahnhof","8001"
"1097","Zürich - Hauptbahnhof","mig",8.5409704,47.3780852,"Hauptbahnhof","8001"
"1098","Zürich - Herdern","spez",8.5073829,47.3898548,"Pfingstweidstrasse 101","8005"
"1099","Zürich - Hohlstrasse","soca",8.4911591,47.3905311,"Hohlstrasse 544","8048"
"1100","Zürich - Hornegg","shell",8.5584899,47.3522083,"Horneggstrasse 3","8008"
"1101","Zürich - Höngg","m",8.4973707,47.403841,"Regensdorferstrasse 20","8049"
"1102","Zürich - Höschgasse","m",8.5541223,47.3585563,"Seefeldstrasse 111-113","8008"
"1103","Zürich - Kreuzplatz","mm",8.5537771,47.3645091,"Kreuzplatz 20","8008"
"1104","Zürich - Leimbach Sihlbogen","m",8.5189546,47.3362301,"Leimbachstrasse 23","8041"
"1105","Zürich - Limmatplatz","mmm",8.5310561,47.385379,"Limmatstrasse 152","8005"
"1106","Zürich - Manegg","soca",8.5193259,47.3405316,"Allmendstrasse 121","8041"
"1107","Zürich - Niederdorf M-Express","m",8.544099,47.3743798,"Mühlegasse 11","8001"
"1108","Zürich - Oerlikon Neumarkt","mm",8.5427022,47.410559,"Hofwiesenstrasse 350-354","8050"
"1109","Zürich - Oerlikon Pop-Up Store","fm",8.5443472,47.4098304,"Nansenstrasse 21","8050"
"1110","Zürich - Puls 5 M-Express","m",8.5185536,47.3913363,"Hardturmstrasse 11","8005"
"1111","Zürich - Pünt","m",8.4858095,47.3751082,"Albisriederstrasse 365","8047"
"1112","Zürich - Rautistrasse","shell",8.4942078,47.3803768,"Rautistrasse 12","8047"
"1113","Zürich - Rigiplatz","m",8.5487676,47.3862231,"Winterthurerstrasse 2-4","8006"
"1114","Zürich - Schaffhauserplatz","m",8.5384895,47.392636,"Schaffhauserstrasse 75","8057"
"1115","Zürich - Schmiede Wiedikon","m",8.5204177,47.3702468,"Birmensdorferstrasse 140","8003"
"1116","Zürich - Schwamendingen","m",8.5725326,47.4038478,"Winterthurerstrasse 524","8051"
"1117","Zürich - Seebach","mm",8.54861,47.4193716,"Schaffhauserstrasse 470","8052"
"1118","Zürich - ShopVilleMärt","m",8.54007,47.3772377,"Shop Ville","8001"
"1119","Zürich - Sihlcity Outdoor","spez",8.5230881,47.3570168,"Kalanderplatz 1","8045"
"1120","Zürich - Sihlquai","mgls",8.5319665,47.3858886,"Sihlquai 155","8005"
"1121","Zürich - Stadelhofen","m",8.5478721,47.3654727,"Falkenstrasse 19 - 21","8008"
"1122","Zürich - Stockerstrasse M-Express","m",8.5340278,47.3682475,"Stockerstrasse 47","8002"
"1123","Zürich - Thurgauerstrasse","mgls",8.5563319,47.419783,"Thurgauerstrasse 100","8052"
"1124","Zürich - Toblerplatz","m",8.5593819,47.3795452,"Toblerstrasse 73","8044"
"1125","Zürich - Triemli","soca",8.4966028,47.3684974,"Birmensdorferstrasse 484","8055"
"1126","Zürich - Waffenplatz","mig",8.5264079,47.3594773,"Waffenplatzstrasse 40","8002"
"1127","Zürich - Wengihof","m",8.5230687,47.3749444,"Wengistrasse 7","8004"
"1128","Zürich - Wiedikon M-Märt","mm",8.5085226,47.3699977,"Birmensdorferstrasse 320","8055"
"1129","Zürich - Wipkingen","m",8.5291765,47.3938846,"Scheffelstrasse 3","8037"
"1130","Zürich - Witikon-Zentrum","mm",8.5857236,47.359265,"Witikonerstrasse 293","8053"
"1131","Zürich - Wollishofen","mm",8.5301409,47.3445909,"Etzelstrasse 3","8038"
"1132","Zürich-Langstrasse Take Away","mta",8.5279288,47.3798263,"Langstrasse 134","8004"
"1133","fresh Zürich - Löwenstrasse","mta",8.5348286,47.373207,"Löwenstrasse 2","8000"
